{
"type": "FeatureCollection",
"name": "sql_statement",
"crs": { "type": "name", "properties": { "name": "urn:ogc:def:crs:OGC:1.3:CRS84" } },
"features": [
{ "type": "Feature", "properties": { "amenity": "restaurant", "name": "5Church Atlanta", "cuisine": "american", "addr:housenumber": "1197", "addr:street": "Peachtree Street Northeast", "addr:postcode": "30361", "addr:city": "Atlanta", "website": "http:\/\/5churchatlanta.com\/", "addr:state": "GA", "opening_hours": "Mo-Fr 11:00-15:00, 17:00-23:30, Sa: 11:00-15:00; Su: 10:00-15:00", "phone": "+1 404 400 3669", "wheelchair": null, "outdoor_seating": "yes", "takeaway": null, "smoking": null, "delivery": null, "addr:country": "US", "addr:unit": null, "capacity": null, "internet_access": null }, "geometry": { "type": "Point", "coordinates": [ -84.3829621, 33.787223 ] } },
{ "type": "Feature", "properties": { "amenity": "restaurant", "name": "5 Seasons", "cuisine": null, "addr:housenumber": null, "addr:street": null, "addr:postcode": null, "addr:city": null, "website": null, "addr:state": null, "opening_hours": null, "phone": null, "wheelchair": null, "outdoor_seating": null, "takeaway": null, "smoking": null, "delivery": null, "addr:country": null, "addr:unit": null, "capacity": null, "internet_access": null }, "geometry": { "type": "Point", "coordinates": [ -84.4103302, 33.7788823 ] } },
{ "type": "Feature", "properties": { "amenity": "restaurant", "name": "9th Ave Street Food", "cuisine": null, "addr:housenumber": null, "addr:street": null, "addr:postcode": null, "addr:city": null, "website": null, "addr:state": null, "opening_hours": null, "phone": null, "wheelchair": null, "outdoor_seating": null, "takeaway": null, "smoking": null, "delivery": null, "addr:country": null, "addr:unit": null, "capacity": null, "internet_access": null }, "geometry": { "type": "Point", "coordinates": [ -84.3781422, 33.7727527 ] } },
{ "type": "Feature", "properties": { "amenity": "restaurant", "name": "Aamar Indian Cuisine", "cuisine": null, "addr:housenumber": "100", "addr:street": "Atlanta Streetcar", "addr:postcode": null, "addr:city": null, "website": "aamarindian.com", "addr:state": null, "opening_hours": null, "phone": "404-275-6959", "wheelchair": null, "outdoor_seating": null, "takeaway": null, "smoking": null, "delivery": null, "addr:country": null, "addr:unit": null, "capacity": null, "internet_access": null }, "geometry": { "type": "Point", "coordinates": [ -84.3898383, 33.7573385 ] } },
{ "type": "Feature", "properties": { "amenity": "restaurant", "name": "Agave", "cuisine": null, "addr:housenumber": null, "addr:street": null, "addr:postcode": null, "addr:city": null, "website": null, "addr:state": null, "opening_hours": null, "phone": null, "wheelchair": null, "outdoor_seating": null, "takeaway": null, "smoking": null, "delivery": null, "addr:country": null, "addr:unit": null, "capacity": null, "internet_access": null }, "geometry": { "type": "Point", "coordinates": [ -84.3679482, 33.7480678 ] } },
{ "type": "Feature", "properties": { "amenity": "restaurant", "name": "Agavero Cantina", "cuisine": "mexican", "addr:housenumber": "1133", "addr:street": "Huff Road Northwest", "addr:postcode": "30318", "addr:city": "Atlanta", "website": null, "addr:state": "Ga", "opening_hours": null, "phone": null, "wheelchair": null, "outdoor_seating": "yes", "takeaway": null, "smoking": null, "delivery": null, "addr:country": null, "addr:unit": null, "capacity": null, "internet_access": null }, "geometry": { "type": "Point", "coordinates": [ -84.4255992, 33.7892067 ] } },
{ "type": "Feature", "properties": { "amenity": "restaurant", "name": "Ali Baba", "cuisine": "Turkish & Mediterranean", "addr:housenumber": null, "addr:street": null, "addr:postcode": null, "addr:city": null, "website": null, "addr:state": null, "opening_hours": null, "phone": null, "wheelchair": null, "outdoor_seating": null, "takeaway": null, "smoking": null, "delivery": null, "addr:country": null, "addr:unit": null, "capacity": null, "internet_access": null }, "geometry": { "type": "Point", "coordinates": [ -84.3510303, 33.7637965 ] } },
{ "type": "Feature", "properties": { "amenity": "restaurant", "name": "Alluvia", "cuisine": null, "addr:housenumber": null, "addr:street": null, "addr:postcode": null, "addr:city": null, "website": null, "addr:state": null, "opening_hours": null, "phone": null, "wheelchair": null, "outdoor_seating": null, "takeaway": null, "smoking": null, "delivery": null, "addr:country": null, "addr:unit": null, "capacity": null, "internet_access": null }, "geometry": { "type": "Point", "coordinates": [ -84.3885362, 33.7793475 ] } },
{ "type": "Feature", "properties": { "amenity": "restaurant", "name": "American Cut", "cuisine": "steak_house", "addr:housenumber": "3035", "addr:street": "Peachtree Road", "addr:postcode": "30305", "addr:city": "Atlanta", "website": null, "addr:state": "GA", "opening_hours": null, "phone": null, "wheelchair": null, "outdoor_seating": null, "takeaway": null, "smoking": null, "delivery": null, "addr:country": null, "addr:unit": null, "capacity": null, "internet_access": null }, "geometry": { "type": "Point", "coordinates": [ -84.3810406, 33.8373609 ] } },
{ "type": "Feature", "properties": { "amenity": "restaurant", "name": "American Deli", "cuisine": "american", "addr:housenumber": "1715", "addr:street": "Howell Mill Road Northwest", "addr:postcode": "30318", "addr:city": null, "website": null, "addr:state": null, "opening_hours": null, "phone": null, "wheelchair": null, "outdoor_seating": null, "takeaway": null, "smoking": null, "delivery": null, "addr:country": null, "addr:unit": null, "capacity": null, "internet_access": null }, "geometry": { "type": "Point", "coordinates": [ -84.4143389, 33.8011462 ] } },
{ "type": "Feature", "properties": { "amenity": "restaurant", "name": "Anatolia Mediterranean Cafe", "cuisine": "mediterranean", "addr:housenumber": "52", "addr:street": "Peachtree Street", "addr:postcode": "30303", "addr:city": "Atlanta", "website": "http:\/\/theanatoliacafe.com\/", "addr:state": null, "opening_hours": "Mo-Fr 11:00-24:00, Sa 16:00-02:00", "phone": null, "wheelchair": "yes", "outdoor_seating": null, "takeaway": null, "smoking": null, "delivery": null, "addr:country": null, "addr:unit": null, "capacity": "75", "internet_access": null }, "geometry": { "type": "Point", "coordinates": [ -84.3893068, 33.7551777 ] } },
{ "type": "Feature", "properties": { "amenity": "restaurant", "name": "Anh’s Kitchen", "cuisine": "vietnamese", "addr:housenumber": "855", "addr:street": "Peachtree Street Northeast", "addr:postcode": "30308", "addr:city": "Atlanta", "website": "https:\/\/anhkitchenatl.com\/", "addr:state": null, "opening_hours": null, "phone": "4049896886", "wheelchair": null, "outdoor_seating": null, "takeaway": null, "smoking": null, "delivery": null, "addr:country": null, "addr:unit": null, "capacity": null, "internet_access": null }, "geometry": { "type": "Point", "coordinates": [ -84.3841208, 33.7779671 ] } },
{ "type": "Feature", "properties": { "amenity": "restaurant", "name": "Anna's BBQ", "cuisine": "barbecue", "addr:housenumber": null, "addr:street": null, "addr:postcode": null, "addr:city": null, "website": null, "addr:state": null, "opening_hours": null, "phone": null, "wheelchair": null, "outdoor_seating": null, "takeaway": null, "smoking": null, "delivery": null, "addr:country": null, "addr:unit": null, "capacity": null, "internet_access": null }, "geometry": { "type": "Point", "coordinates": [ -84.3227225, 33.7518646 ] } },
{ "type": "Feature", "properties": { "amenity": "restaurant", "name": "Antico Pizza Napoletana", "cuisine": "pizza", "addr:housenumber": "1093", "addr:street": "Hemphill Avenue Northwest", "addr:postcode": "30318", "addr:city": "Atlanta", "website": "https:\/\/littleitalia.com\/", "addr:state": "GA", "opening_hours": null, "phone": "+1-404-724-2333", "wheelchair": null, "outdoor_seating": null, "takeaway": null, "smoking": null, "delivery": null, "addr:country": "US", "addr:unit": null, "capacity": null, "internet_access": null }, "geometry": { "type": "Point", "coordinates": [ -84.4056305, 33.7846556 ] } },
{ "type": "Feature", "properties": { "amenity": "restaurant", "name": "Apres Diem", "cuisine": "american", "addr:housenumber": null, "addr:street": null, "addr:postcode": null, "addr:city": null, "website": null, "addr:state": null, "opening_hours": null, "phone": null, "wheelchair": null, "outdoor_seating": null, "takeaway": null, "smoking": null, "delivery": null, "addr:country": null, "addr:unit": null, "capacity": null, "internet_access": null }, "geometry": { "type": "Point", "coordinates": [ -84.3671568, 33.7791816 ] } },
{ "type": "Feature", "properties": { "amenity": "restaurant", "name": "Arden's Garden", "cuisine": "Fruit_juices_and_smoothies", "addr:housenumber": null, "addr:street": null, "addr:postcode": null, "addr:city": null, "website": null, "addr:state": null, "opening_hours": null, "phone": null, "wheelchair": null, "outdoor_seating": null, "takeaway": null, "smoking": null, "delivery": null, "addr:country": null, "addr:unit": null, "capacity": null, "internet_access": null }, "geometry": { "type": "Point", "coordinates": [ -84.3218588, 33.7509481 ] } },
{ "type": "Feature", "properties": { "amenity": "restaurant", "name": "Argosy", "cuisine": "american", "addr:housenumber": "470", "addr:street": "Flat Shoals Ave SE", "addr:postcode": "30316", "addr:city": null, "website": "https:\/\/www.yelp.com\/biz\/argosy-atlanta", "addr:state": null, "opening_hours": null, "phone": null, "wheelchair": null, "outdoor_seating": null, "takeaway": null, "smoking": null, "delivery": null, "addr:country": null, "addr:unit": null, "capacity": null, "internet_access": null }, "geometry": { "type": "Point", "coordinates": [ -84.3462587, 33.7412934 ] } },
{ "type": "Feature", "properties": { "amenity": "restaurant", "name": "Atkin's Park", "cuisine": "american", "addr:housenumber": null, "addr:street": null, "addr:postcode": null, "addr:city": null, "website": null, "addr:state": null, "opening_hours": null, "phone": null, "wheelchair": "limited", "outdoor_seating": "yes", "takeaway": "yes", "smoking": "outside", "delivery": "no", "addr:country": null, "addr:unit": null, "capacity": null, "internet_access": "wlan" }, "geometry": { "type": "Point", "coordinates": [ -84.35268, 33.776144 ] } },
{ "type": "Feature", "properties": { "amenity": "restaurant", "name": "Babalu", "cuisine": null, "addr:housenumber": null, "addr:street": null, "addr:postcode": null, "addr:city": null, "website": null, "addr:state": null, "opening_hours": null, "phone": null, "wheelchair": null, "outdoor_seating": null, "takeaway": null, "smoking": null, "delivery": null, "addr:country": null, "addr:unit": null, "capacity": null, "internet_access": null }, "geometry": { "type": "Point", "coordinates": [ -84.3869275, 33.7805556 ] } },
{ "type": "Feature", "properties": { "amenity": "restaurant", "name": "Babs Midtown", "cuisine": "burger", "addr:housenumber": "814", "addr:street": "Juniper Street Northeast", "addr:postcode": "30308", "addr:city": "Atlanta", "website": null, "addr:state": "GA", "opening_hours": null, "phone": null, "wheelchair": null, "outdoor_seating": null, "takeaway": null, "smoking": null, "delivery": null, "addr:country": null, "addr:unit": "3", "capacity": null, "internet_access": null }, "geometry": { "type": "Point", "coordinates": [ -84.3831638, 33.7767491 ] } },
{ "type": "Feature", "properties": { "amenity": "restaurant", "name": "Bantam and Biddy", "cuisine": null, "addr:housenumber": null, "addr:street": null, "addr:postcode": null, "addr:city": null, "website": null, "addr:state": null, "opening_hours": null, "phone": null, "wheelchair": null, "outdoor_seating": null, "takeaway": null, "smoking": null, "delivery": null, "addr:country": null, "addr:unit": null, "capacity": null, "internet_access": null }, "geometry": { "type": "Point", "coordinates": [ -84.370892, 33.798267 ] } },
{ "type": "Feature", "properties": { "amenity": "restaurant", "name": "Barberitos", "cuisine": "mexican", "addr:housenumber": null, "addr:street": null, "addr:postcode": null, "addr:city": null, "website": null, "addr:state": null, "opening_hours": null, "phone": null, "wheelchair": null, "outdoor_seating": null, "takeaway": null, "smoking": null, "delivery": null, "addr:country": null, "addr:unit": null, "capacity": null, "internet_access": null }, "geometry": { "type": "Point", "coordinates": [ -84.3843117, 33.833732 ] } },
{ "type": "Feature", "properties": { "amenity": "restaurant", "name": "Bar Taco", "cuisine": "mexican", "addr:housenumber": "3802", "addr:street": "Roswell Road", "addr:postcode": "30342", "addr:city": null, "website": null, "addr:state": null, "opening_hours": null, "phone": null, "wheelchair": null, "outdoor_seating": null, "takeaway": null, "smoking": null, "delivery": null, "addr:country": null, "addr:unit": null, "capacity": null, "internet_access": "wlan" }, "geometry": { "type": "Point", "coordinates": [ -84.3814764, 33.8583693 ] } },
{ "type": "Feature", "properties": { "amenity": "restaurant", "name": "Bell Street Burrito", "cuisine": null, "addr:housenumber": null, "addr:street": null, "addr:postcode": null, "addr:city": null, "website": null, "addr:state": null, "opening_hours": null, "phone": null, "wheelchair": null, "outdoor_seating": null, "takeaway": null, "smoking": null, "delivery": null, "addr:country": null, "addr:unit": null, "capacity": null, "internet_access": null }, "geometry": { "type": "Point", "coordinates": [ -84.3651117, 33.7558251 ] } },
{ "type": "Feature", "properties": { "amenity": "restaurant", "name": "Benihana", "cuisine": "japanese", "addr:housenumber": null, "addr:street": null, "addr:postcode": null, "addr:city": null, "website": null, "addr:state": null, "opening_hours": null, "phone": null, "wheelchair": null, "outdoor_seating": null, "takeaway": null, "smoking": null, "delivery": null, "addr:country": null, "addr:unit": null, "capacity": null, "internet_access": null }, "geometry": { "type": "Point", "coordinates": [ -84.3916046, 33.8127925 ] } },
{ "type": "Feature", "properties": { "amenity": "restaurant", "name": "Bezoria", "cuisine": "middle_eastern;indian", "addr:housenumber": "903", "addr:street": "Peachtree Street Northeast", "addr:postcode": "30309", "addr:city": "Atlanta", "website": null, "addr:state": "GA", "opening_hours": "Mo-Sa 11:00-21:00, Su 12:00-21:00", "phone": null, "wheelchair": "yes", "outdoor_seating": "yes", "takeaway": "yes", "smoking": "no", "delivery": null, "addr:country": null, "addr:unit": null, "capacity": "50", "internet_access": null }, "geometry": { "type": "Point", "coordinates": [ -84.3838351, 33.7793206 ] } },
{ "type": "Feature", "properties": { "amenity": "restaurant", "name": "Bhojanic", "cuisine": "indian", "addr:housenumber": null, "addr:street": null, "addr:postcode": null, "addr:city": null, "website": null, "addr:state": null, "opening_hours": null, "phone": null, "wheelchair": "yes", "outdoor_seating": "yes", "takeaway": "yes", "smoking": "no", "delivery": null, "addr:country": null, "addr:unit": null, "capacity": null, "internet_access": null }, "geometry": { "type": "Point", "coordinates": [ -84.365571, 33.846034 ] } },
{ "type": "Feature", "properties": { "amenity": "restaurant", "name": "Big Easy Grille", "cuisine": null, "addr:housenumber": null, "addr:street": null, "addr:postcode": null, "addr:city": null, "website": null, "addr:state": null, "opening_hours": null, "phone": null, "wheelchair": null, "outdoor_seating": null, "takeaway": null, "smoking": null, "delivery": null, "addr:country": null, "addr:unit": null, "capacity": null, "internet_access": null }, "geometry": { "type": "Point", "coordinates": [ -84.4247042, 33.8116731 ] } },
{ "type": "Feature", "properties": { "amenity": "restaurant", "name": "Bistro Niko", "cuisine": "french", "addr:housenumber": "3344", "addr:street": "Peachtree Road", "addr:postcode": "30326", "addr:city": "Atlanta", "website": null, "addr:state": "GA", "opening_hours": null, "phone": "+1 404 233 5993", "wheelchair": null, "outdoor_seating": null, "takeaway": null, "smoking": null, "delivery": null, "addr:country": "US", "addr:unit": null, "capacity": null, "internet_access": null }, "geometry": { "type": "Point", "coordinates": [ -84.3685683, 33.8465635 ] } },
{ "type": "Feature", "properties": { "amenity": "restaurant", "name": "Blu Cantina", "cuisine": "mexican", "addr:housenumber": "1242", "addr:street": "Glenwood Avenue Southeast", "addr:postcode": "30316", "addr:city": "Atlanta", "website": null, "addr:state": null, "opening_hours": null, "phone": null, "wheelchair": null, "outdoor_seating": "yes", "takeaway": null, "smoking": null, "delivery": null, "addr:country": null, "addr:unit": null, "capacity": null, "internet_access": null }, "geometry": { "type": "Point", "coordinates": [ -84.3468838, 33.7403365 ] } },
{ "type": "Feature", "properties": { "amenity": "restaurant", "name": "Bobby G's", "cuisine": "pizza", "addr:housenumber": null, "addr:street": null, "addr:postcode": null, "addr:city": null, "website": null, "addr:state": null, "opening_hours": null, "phone": null, "wheelchair": null, "outdoor_seating": null, "takeaway": null, "smoking": null, "delivery": null, "addr:country": null, "addr:unit": null, "capacity": null, "internet_access": null }, "geometry": { "type": "Point", "coordinates": [ -84.3684703, 33.8224307 ] } },
{ "type": "Feature", "properties": { "amenity": "restaurant", "name": "Bocado", "cuisine": "american", "addr:housenumber": "887", "addr:street": "Howell Mill Road", "addr:postcode": "30318", "addr:city": "Atlanta", "website": null, "addr:state": null, "opening_hours": "Mo-Fr 11:30-14:00, 17:30-22:00+", "phone": null, "wheelchair": null, "outdoor_seating": null, "takeaway": null, "smoking": "no", "delivery": null, "addr:country": null, "addr:unit": null, "capacity": "50+", "internet_access": null }, "geometry": { "type": "Point", "coordinates": [ -84.4099081, 33.7795053 ] } },
{ "type": "Feature", "properties": { "amenity": "restaurant", "name": "BoccaLupa", "cuisine": "italian", "addr:housenumber": "753", "addr:street": "Edgewood Avenue Northeast", "addr:postcode": "30307", "addr:city": "Atlanta", "website": "http:\/\/www.boccalupoatl.com\/", "addr:state": "GA", "opening_hours": "Tu-Su 17:00-00:00", "phone": "+1-404-577-2332", "wheelchair": null, "outdoor_seating": null, "takeaway": null, "smoking": null, "delivery": null, "addr:country": null, "addr:unit": null, "capacity": null, "internet_access": null }, "geometry": { "type": "Point", "coordinates": [ -84.3627599, 33.7547752 ] } },
{ "type": "Feature", "properties": { "amenity": "restaurant", "name": "Bone Garden Cantina", "cuisine": null, "addr:housenumber": null, "addr:street": null, "addr:postcode": null, "addr:city": null, "website": null, "addr:state": null, "opening_hours": null, "phone": null, "wheelchair": null, "outdoor_seating": null, "takeaway": null, "smoking": null, "delivery": null, "addr:country": null, "addr:unit": null, "capacity": null, "internet_access": null }, "geometry": { "type": "Point", "coordinates": [ -84.4259486, 33.7935744 ] } },
{ "type": "Feature", "properties": { "amenity": "restaurant", "name": "BRIO Tuscan Grille", "cuisine": null, "addr:housenumber": "2964", "addr:street": "Peachtree Road", "addr:postcode": "30305", "addr:city": "Atlanta", "website": null, "addr:state": "GA", "opening_hours": null, "phone": null, "wheelchair": null, "outdoor_seating": null, "takeaway": null, "smoking": null, "delivery": null, "addr:country": null, "addr:unit": null, "capacity": null, "internet_access": null }, "geometry": { "type": "Point", "coordinates": [ -84.3824517, 33.8357022 ] } },
{ "type": "Feature", "properties": { "amenity": "restaurant", "name": "Buns and Shakes", "cuisine": null, "addr:housenumber": null, "addr:street": null, "addr:postcode": null, "addr:city": null, "website": null, "addr:state": null, "opening_hours": null, "phone": null, "wheelchair": null, "outdoor_seating": null, "takeaway": null, "smoking": null, "delivery": null, "addr:country": null, "addr:unit": null, "capacity": null, "internet_access": null }, "geometry": { "type": "Point", "coordinates": [ -84.3815877, 33.7558313 ] } },
{ "type": "Feature", "properties": { "amenity": "restaurant", "name": "CACAO BUCKHEAD", "cuisine": null, "addr:housenumber": null, "addr:street": null, "addr:postcode": null, "addr:city": null, "website": null, "addr:state": null, "opening_hours": null, "phone": null, "wheelchair": null, "outdoor_seating": null, "takeaway": null, "smoking": null, "delivery": null, "addr:country": null, "addr:unit": null, "capacity": null, "internet_access": null }, "geometry": { "type": "Point", "coordinates": [ -84.3808305, 33.8378419 ] } },
{ "type": "Feature", "properties": { "amenity": "restaurant", "name": "Cafe Antico", "cuisine": "italian;pizza", "addr:housenumber": "1077", "addr:street": "Hemphill Avenue Northwest", "addr:postcode": "30318", "addr:city": "Atlanta", "website": "https:\/\/littleitalia.com\/", "addr:state": "GA", "opening_hours": null, "phone": "+1-404-844-2707", "wheelchair": null, "outdoor_seating": null, "takeaway": null, "smoking": null, "delivery": null, "addr:country": null, "addr:unit": null, "capacity": null, "internet_access": null }, "geometry": { "type": "Point", "coordinates": [ -84.4054069, 33.7842093 ] } },
{ "type": "Feature", "properties": { "amenity": "restaurant", "name": "Camelli's", "cuisine": "pizza", "addr:housenumber": null, "addr:street": null, "addr:postcode": null, "addr:city": null, "website": "https:\/\/www.camelispizza.com\/", "addr:state": null, "opening_hours": null, "phone": null, "wheelchair": null, "outdoor_seating": null, "takeaway": null, "smoking": null, "delivery": null, "addr:country": null, "addr:unit": null, "capacity": null, "internet_access": null }, "geometry": { "type": "Point", "coordinates": [ -84.3638941, 33.7728086 ] } },
{ "type": "Feature", "properties": { "amenity": "restaurant", "name": "Canton Buddha", "cuisine": "chinese", "addr:housenumber": "2900", "addr:street": "Peachtree Road", "addr:postcode": "30305", "addr:city": "Atlanta", "website": null, "addr:state": "GA", "opening_hours": null, "phone": null, "wheelchair": null, "outdoor_seating": null, "takeaway": null, "smoking": null, "delivery": null, "addr:country": null, "addr:unit": null, "capacity": null, "internet_access": null }, "geometry": { "type": "Point", "coordinates": [ -84.3836959, 33.8343479 ] } },
{ "type": "Feature", "properties": { "amenity": "restaurant", "name": "Canton Chopsticks", "cuisine": "chinese", "addr:housenumber": "1923", "addr:street": "Howell Mill Rd NW", "addr:postcode": "30318", "addr:city": null, "website": null, "addr:state": null, "opening_hours": null, "phone": null, "wheelchair": null, "outdoor_seating": null, "takeaway": null, "smoking": null, "delivery": null, "addr:country": null, "addr:unit": null, "capacity": null, "internet_access": null }, "geometry": { "type": "Point", "coordinates": [ -84.4124158, 33.8072998 ] } },
{ "type": "Feature", "properties": { "amenity": "restaurant", "name": "Canyon Grill", "cuisine": null, "addr:housenumber": null, "addr:street": null, "addr:postcode": null, "addr:city": null, "website": null, "addr:state": null, "opening_hours": null, "phone": null, "wheelchair": null, "outdoor_seating": null, "takeaway": null, "smoking": null, "delivery": null, "addr:country": null, "addr:unit": null, "capacity": null, "internet_access": null }, "geometry": { "type": "Point", "coordinates": [ -84.385835, 33.7627199 ] } },
{ "type": "Feature", "properties": { "amenity": "restaurant", "name": "Carrol St. Cafe", "cuisine": "american", "addr:housenumber": null, "addr:street": null, "addr:postcode": null, "addr:city": null, "website": null, "addr:state": null, "opening_hours": null, "phone": null, "wheelchair": null, "outdoor_seating": null, "takeaway": null, "smoking": null, "delivery": null, "addr:country": null, "addr:unit": null, "capacity": null, "internet_access": null }, "geometry": { "type": "Point", "coordinates": [ -84.3679405, 33.7489743 ] } },
{ "type": "Feature", "properties": { "amenity": "restaurant", "name": "Casseroles To Go", "cuisine": "american", "addr:housenumber": "1393", "addr:street": "North Highland Avenue", "addr:postcode": "30306", "addr:city": "Atlanta", "website": null, "addr:state": null, "opening_hours": null, "phone": null, "wheelchair": "yes", "outdoor_seating": "no", "takeaway": "only", "smoking": "no", "delivery": "no", "addr:country": null, "addr:unit": "Suite 4", "capacity": null, "internet_access": null }, "geometry": { "type": "Point", "coordinates": [ -84.352177, 33.792155 ] } },
{ "type": "Feature", "properties": { "amenity": "restaurant", "name": "Chin Chin", "cuisine": "chinese", "addr:housenumber": "1715", "addr:street": "Howell Mill Road Northwest", "addr:postcode": "30318", "addr:city": null, "website": "http:\/\/www.chinchinonline.com\/info.php?location=4", "addr:state": null, "opening_hours": null, "phone": null, "wheelchair": null, "outdoor_seating": null, "takeaway": null, "smoking": null, "delivery": null, "addr:country": null, "addr:unit": null, "capacity": null, "internet_access": null }, "geometry": { "type": "Point", "coordinates": [ -84.4127511, 33.8025147 ] } },
{ "type": "Feature", "properties": { "amenity": "restaurant", "name": "Chin Chin II", "cuisine": "chinese", "addr:housenumber": null, "addr:street": null, "addr:postcode": null, "addr:city": null, "website": null, "addr:state": null, "opening_hours": null, "phone": null, "wheelchair": null, "outdoor_seating": null, "takeaway": null, "smoking": null, "delivery": null, "addr:country": null, "addr:unit": null, "capacity": null, "internet_access": null }, "geometry": { "type": "Point", "coordinates": [ -84.3639938, 33.7731434 ] } },
{ "type": "Feature", "properties": { "amenity": "restaurant", "name": "Chinese Buddha", "cuisine": "chinese", "addr:housenumber": "100", "addr:street": "10th Street NW", "addr:postcode": "30309", "addr:city": null, "website": null, "addr:state": null, "opening_hours": "Mo 11:00-22:00; Tu-Sa 11:00-06:00; Su 18:00-02:00", "phone": null, "wheelchair": "yes", "outdoor_seating": null, "takeaway": null, "smoking": null, "delivery": null, "addr:country": null, "addr:unit": null, "capacity": null, "internet_access": null }, "geometry": { "type": "Point", "coordinates": [ -84.3901179, 33.781285 ] } },
{ "type": "Feature", "properties": { "amenity": "restaurant", "name": "Chipotle Mexican Grill", "cuisine": "mexican", "addr:housenumber": null, "addr:street": null, "addr:postcode": null, "addr:city": null, "website": null, "addr:state": null, "opening_hours": null, "phone": null, "wheelchair": null, "outdoor_seating": null, "takeaway": null, "smoking": null, "delivery": null, "addr:country": null, "addr:unit": null, "capacity": null, "internet_access": null }, "geometry": { "type": "Point", "coordinates": [ -84.3635876, 33.7739207 ] } },
{ "type": "Feature", "properties": { "amenity": "restaurant", "name": "Chipotle Mexican Grill", "cuisine": "mexican", "addr:housenumber": null, "addr:street": null, "addr:postcode": null, "addr:city": null, "website": null, "addr:state": null, "opening_hours": null, "phone": null, "wheelchair": null, "outdoor_seating": null, "takeaway": null, "smoking": null, "delivery": null, "addr:country": null, "addr:unit": null, "capacity": null, "internet_access": null }, "geometry": { "type": "Point", "coordinates": [ -84.4130891, 33.8101645 ] } },
{ "type": "Feature", "properties": { "amenity": "restaurant", "name": "Circle Poké", "cuisine": "asian", "addr:housenumber": "1010", "addr:street": "Northside Drive Northwest", "addr:postcode": "30318", "addr:city": "Atlanta", "website": null, "addr:state": null, "opening_hours": "Mo-Sa 11:00-23:30", "phone": null, "wheelchair": null, "outdoor_seating": null, "takeaway": null, "smoking": null, "delivery": null, "addr:country": null, "addr:unit": null, "capacity": null, "internet_access": null }, "geometry": { "type": "Point", "coordinates": [ -84.4078179, 33.7820519 ] } },
{ "type": "Feature", "properties": { "amenity": "restaurant", "name": "City Tap House Atlanta", "cuisine": null, "addr:housenumber": "848", "addr:street": "Peachtree Street Northeast", "addr:postcode": "30308", "addr:city": "Atlanta", "website": null, "addr:state": "GA", "opening_hours": null, "phone": null, "wheelchair": null, "outdoor_seating": null, "takeaway": null, "smoking": null, "delivery": null, "addr:country": null, "addr:unit": null, "capacity": null, "internet_access": null }, "geometry": { "type": "Point", "coordinates": [ -84.384705, 33.7778901 ] } },
{ "type": "Feature", "properties": { "amenity": "restaurant", "name": "CO", "cuisine": "asian", "addr:housenumber": null, "addr:street": null, "addr:postcode": "30306", "addr:city": null, "website": "http:\/\/eatatco.com", "addr:state": null, "opening_hours": "Su-Th 11:00-22:00; Fr-Sa 11:00-23:00", "phone": "404-474-0262", "wheelchair": null, "outdoor_seating": null, "takeaway": null, "smoking": null, "delivery": null, "addr:country": null, "addr:unit": null, "capacity": null, "internet_access": null }, "geometry": { "type": "Point", "coordinates": [ -84.3523927, 33.7730378 ] } },
{ "type": "Feature", "properties": { "amenity": "restaurant", "name": "Crazy Cuban", "cuisine": "cuban", "addr:housenumber": null, "addr:street": null, "addr:postcode": null, "addr:city": null, "website": null, "addr:state": null, "opening_hours": null, "phone": null, "wheelchair": null, "outdoor_seating": null, "takeaway": null, "smoking": null, "delivery": null, "addr:country": null, "addr:unit": null, "capacity": null, "internet_access": null }, "geometry": { "type": "Point", "coordinates": [ -84.3965325, 33.7860199 ] } },
{ "type": "Feature", "properties": { "amenity": "restaurant", "name": "Daddy D'z", "cuisine": "barbecue", "addr:housenumber": "264", "addr:street": "Memorial Drive Southeast", "addr:postcode": "30312", "addr:city": "Atlanta", "website": "http:\/\/www.daddydz.com\/", "addr:state": null, "opening_hours": null, "phone": null, "wheelchair": null, "outdoor_seating": null, "takeaway": null, "smoking": null, "delivery": null, "addr:country": null, "addr:unit": null, "capacity": null, "internet_access": null }, "geometry": { "type": "Point", "coordinates": [ -84.378971, 33.7471274 ] } },
{ "type": "Feature", "properties": { "amenity": "restaurant", "name": "Dakota Blue", "cuisine": null, "addr:housenumber": "454", "addr:street": "Cherokee Avenue Southeast", "addr:postcode": "30312", "addr:city": "Atlanta", "website": null, "addr:state": null, "opening_hours": null, "phone": null, "wheelchair": null, "outdoor_seating": null, "takeaway": null, "smoking": null, "delivery": null, "addr:country": null, "addr:unit": null, "capacity": null, "internet_access": null }, "geometry": { "type": "Point", "coordinates": [ -84.3733069, 33.7420813 ] } },
{ "type": "Feature", "properties": { "amenity": "restaurant", "name": "Dantanna's", "cuisine": "steak_house", "addr:housenumber": null, "addr:street": null, "addr:postcode": null, "addr:city": null, "website": null, "addr:state": null, "opening_hours": null, "phone": null, "wheelchair": "yes", "outdoor_seating": null, "takeaway": null, "smoking": "yes", "delivery": null, "addr:country": null, "addr:unit": null, "capacity": null, "internet_access": null }, "geometry": { "type": "Point", "coordinates": [ -84.365175, 33.847597 ] } },
{ "type": "Feature", "properties": { "amenity": "restaurant", "name": "DBA Barbeque", "cuisine": null, "addr:housenumber": null, "addr:street": null, "addr:postcode": null, "addr:city": null, "website": null, "addr:state": null, "opening_hours": null, "phone": null, "wheelchair": null, "outdoor_seating": null, "takeaway": null, "smoking": null, "delivery": null, "addr:country": null, "addr:unit": null, "capacity": null, "internet_access": null }, "geometry": { "type": "Point", "coordinates": [ -84.355711, 33.787164 ] } },
{ "type": "Feature", "properties": { "amenity": "restaurant", "name": "Delia's Chicken Sausage Stand", "cuisine": null, "addr:housenumber": "489", "addr:street": "Moreland Avenue Southeast", "addr:postcode": null, "addr:city": "Atlanta", "website": null, "addr:state": null, "opening_hours": null, "phone": null, "wheelchair": null, "outdoor_seating": null, "takeaway": null, "smoking": null, "delivery": null, "addr:country": null, "addr:unit": null, "capacity": null, "internet_access": null }, "geometry": { "type": "Point", "coordinates": [ -84.3496169, 33.7408 ] } },
{ "type": "Feature", "properties": { "amenity": "restaurant", "name": "Die Biergarten", "cuisine": "german", "addr:housenumber": null, "addr:street": null, "addr:postcode": null, "addr:city": null, "website": null, "addr:state": null, "opening_hours": null, "phone": null, "wheelchair": null, "outdoor_seating": null, "takeaway": null, "smoking": null, "delivery": null, "addr:country": null, "addr:unit": null, "capacity": null, "internet_access": null }, "geometry": { "type": "Point", "coordinates": [ -84.3966372, 33.7618961 ] } },
{ "type": "Feature", "properties": { "amenity": "restaurant", "name": "Diesel", "cuisine": "american", "addr:housenumber": null, "addr:street": null, "addr:postcode": null, "addr:city": null, "website": null, "addr:state": null, "opening_hours": null, "phone": null, "wheelchair": null, "outdoor_seating": null, "takeaway": null, "smoking": null, "delivery": null, "addr:country": null, "addr:unit": null, "capacity": null, "internet_access": null }, "geometry": { "type": "Point", "coordinates": [ -84.3530248, 33.7783348 ] } },
{ "type": "Feature", "properties": { "amenity": "restaurant", "name": "Doc Chey's Noodle House", "cuisine": "noodle", "addr:housenumber": "1424", "addr:street": null, "addr:postcode": null, "addr:city": null, "website": "https:\/\/www.doccheys.com\/locations\/virginiahighlands.php", "addr:state": null, "opening_hours": "Mo-Su 11:30-22:00", "phone": "+1-404-888-0777", "wheelchair": null, "outdoor_seating": null, "takeaway": null, "smoking": null, "delivery": null, "addr:country": null, "addr:unit": null, "capacity": null, "internet_access": null }, "geometry": { "type": "Point", "coordinates": [ -84.3518767, 33.7932027 ] } },
{ "type": "Feature", "properties": { "amenity": "restaurant", "name": "Doc Chey's Noodle House", "cuisine": "noodle", "addr:housenumber": "563", "addr:street": "Memorial Drive", "addr:postcode": null, "addr:city": null, "website": "https:\/\/www.doccheys.com\/locations\/grantpark.php", "addr:state": null, "opening_hours": "Mo-Su 11:30-22:00", "phone": "+1-404-688-4238", "wheelchair": null, "outdoor_seating": null, "takeaway": null, "smoking": null, "delivery": null, "addr:country": null, "addr:unit": null, "capacity": null, "internet_access": null }, "geometry": { "type": "Point", "coordinates": [ -84.3694076, 33.7465083 ] } },
{ "type": "Feature", "properties": { "amenity": "restaurant", "name": "Downtown Gourmet", "cuisine": "mediterranean\/greek_+_indian_food + pizza", "addr:housenumber": "123", "addr:street": "Peachtree Street", "addr:postcode": "30303", "addr:city": "Atlanta", "website": null, "addr:state": null, "opening_hours": "Mo-Fr 08:00-17:30", "phone": null, "wheelchair": null, "outdoor_seating": null, "takeaway": null, "smoking": null, "delivery": null, "addr:country": null, "addr:unit": null, "capacity": "30", "internet_access": null }, "geometry": { "type": "Point", "coordinates": [ -84.3880778, 33.7566615 ] } },
{ "type": "Feature", "properties": { "amenity": "restaurant", "name": "Dulce Vegan Bakery and Cafe", "cuisine": "vegan", "addr:housenumber": null, "addr:street": null, "addr:postcode": null, "addr:city": null, "website": null, "addr:state": null, "opening_hours": null, "phone": null, "wheelchair": null, "outdoor_seating": null, "takeaway": null, "smoking": null, "delivery": null, "addr:country": null, "addr:unit": null, "capacity": null, "internet_access": null }, "geometry": { "type": "Point", "coordinates": [ -84.3223765, 33.751345 ] } },
{ "type": "Feature", "properties": { "amenity": "restaurant", "name": "Durango Steakhouse", "cuisine": null, "addr:housenumber": null, "addr:street": null, "addr:postcode": null, "addr:city": null, "website": null, "addr:state": null, "opening_hours": null, "phone": null, "wheelchair": null, "outdoor_seating": null, "takeaway": null, "smoking": null, "delivery": null, "addr:country": null, "addr:unit": null, "capacity": null, "internet_access": null }, "geometry": { "type": "Point", "coordinates": [ -84.3878652, 33.7601686 ] } },
{ "type": "Feature", "properties": { "amenity": "restaurant", "name": "EAV Thai & Sushi", "cuisine": "sushi", "addr:housenumber": "467", "addr:street": "Flat Shoals Ave SE", "addr:postcode": "30316", "addr:city": null, "website": "http:\/\/www.eavthaiandsushi.com\/", "addr:state": null, "opening_hours": null, "phone": null, "wheelchair": null, "outdoor_seating": null, "takeaway": null, "smoking": null, "delivery": null, "addr:country": null, "addr:unit": null, "capacity": null, "internet_access": null }, "geometry": { "type": "Point", "coordinates": [ -84.3466799, 33.7411574 ] } },
{ "type": "Feature", "properties": { "amenity": "restaurant", "name": "Ecco Midtown", "cuisine": null, "addr:housenumber": "40", "addr:street": "7th Street Northeast", "addr:postcode": "30308", "addr:city": "Atlanta", "website": null, "addr:state": "GA", "opening_hours": null, "phone": null, "wheelchair": null, "outdoor_seating": null, "takeaway": null, "smoking": null, "delivery": null, "addr:country": null, "addr:unit": null, "capacity": null, "internet_access": null }, "geometry": { "type": "Point", "coordinates": [ -84.3858784, 33.7787815 ] } },
{ "type": "Feature", "properties": { "amenity": "restaurant", "name": "Einstein's", "cuisine": null, "addr:housenumber": null, "addr:street": null, "addr:postcode": null, "addr:city": null, "website": "https:\/\/einsteinsatlanta.com\/", "addr:state": null, "opening_hours": null, "phone": null, "wheelchair": null, "outdoor_seating": null, "takeaway": null, "smoking": null, "delivery": null, "addr:country": null, "addr:unit": null, "capacity": null, "internet_access": null }, "geometry": { "type": "Point", "coordinates": [ -84.3820274, 33.7841365 ] } },
{ "type": "Feature", "properties": { "amenity": "restaurant", "name": "El Azteca Mexican Restaurant", "cuisine": null, "addr:housenumber": null, "addr:street": null, "addr:postcode": null, "addr:city": null, "website": null, "addr:state": null, "opening_hours": null, "phone": null, "wheelchair": null, "outdoor_seating": null, "takeaway": null, "smoking": null, "delivery": null, "addr:country": null, "addr:unit": null, "capacity": null, "internet_access": null }, "geometry": { "type": "Point", "coordinates": [ -84.3566457, 33.7735536 ] } },
{ "type": "Feature", "properties": { "amenity": "restaurant", "name": "El Bandito Mexican Grill", "cuisine": "mexican", "addr:housenumber": null, "addr:street": null, "addr:postcode": null, "addr:city": null, "website": "http:\/\/elbandidomexmexgrill.com", "addr:state": null, "opening_hours": null, "phone": null, "wheelchair": null, "outdoor_seating": null, "takeaway": null, "smoking": null, "delivery": null, "addr:country": null, "addr:unit": null, "capacity": null, "internet_access": null }, "geometry": { "type": "Point", "coordinates": [ -84.3515271, 33.7632796 ] } },
{ "type": "Feature", "properties": { "amenity": "restaurant", "name": "El Mexicano", "cuisine": "mexican", "addr:housenumber": null, "addr:street": null, "addr:postcode": null, "addr:city": null, "website": null, "addr:state": null, "opening_hours": null, "phone": null, "wheelchair": null, "outdoor_seating": null, "takeaway": null, "smoking": null, "delivery": null, "addr:country": null, "addr:unit": null, "capacity": null, "internet_access": null }, "geometry": { "type": "Point", "coordinates": [ -84.3499287, 33.7180057 ] } },
{ "type": "Feature", "properties": { "amenity": "restaurant", "name": "El Myr", "cuisine": "California Style Buriito", "addr:housenumber": "1091", "addr:street": null, "addr:postcode": null, "addr:city": null, "website": "https:\/\/www.elmyr.com\/", "addr:state": null, "opening_hours": null, "phone": null, "wheelchair": null, "outdoor_seating": null, "takeaway": null, "smoking": null, "delivery": null, "addr:country": null, "addr:unit": null, "capacity": null, "internet_access": null }, "geometry": { "type": "Point", "coordinates": [ -84.3513187, 33.7636114 ] } },
{ "type": "Feature", "properties": { "amenity": "restaurant", "name": "Fellini's Pizza", "cuisine": "pizza", "addr:housenumber": "2809", "addr:street": "Peachtree Road", "addr:postcode": "30305", "addr:city": "Atlanta", "website": null, "addr:state": "GA", "opening_hours": null, "phone": null, "wheelchair": null, "outdoor_seating": null, "takeaway": null, "smoking": null, "delivery": null, "addr:country": null, "addr:unit": null, "capacity": null, "internet_access": null }, "geometry": { "type": "Point", "coordinates": [ -84.3850036, 33.8315629 ] } },
{ "type": "Feature", "properties": { "amenity": "restaurant", "name": "Figo", "cuisine": null, "addr:housenumber": null, "addr:street": null, "addr:postcode": null, "addr:city": null, "website": "https:\/\/figopasta.com\/", "addr:state": null, "opening_hours": null, "phone": null, "wheelchair": null, "outdoor_seating": null, "takeaway": null, "smoking": null, "delivery": null, "addr:country": null, "addr:unit": null, "capacity": null, "internet_access": null }, "geometry": { "type": "Point", "coordinates": [ -84.3489666, 33.7586075 ] } },
{ "type": "Feature", "properties": { "amenity": "restaurant", "name": "Figo Pasta", "cuisine": "italian;noodle", "addr:housenumber": "907", "addr:street": "Marietta Street Northwest", "addr:postcode": "30318", "addr:city": "Atlanta", "website": null, "addr:state": "GA", "opening_hours": "11:30-10:00", "phone": null, "wheelchair": null, "outdoor_seating": null, "takeaway": "yes", "smoking": "no", "delivery": null, "addr:country": null, "addr:unit": null, "capacity": null, "internet_access": null }, "geometry": { "type": "Point", "coordinates": [ -84.4079084, 33.7771596 ] } },
{ "type": "Feature", "properties": { "amenity": "restaurant", "name": "Firehouse Subs", "cuisine": "sandwich", "addr:housenumber": "545", "addr:street": "10th Street Northwest", "addr:postcode": "30318", "addr:city": "Atlanta", "website": null, "addr:state": "GA", "opening_hours": null, "phone": null, "wheelchair": null, "outdoor_seating": null, "takeaway": null, "smoking": null, "delivery": null, "addr:country": null, "addr:unit": null, "capacity": null, "internet_access": null }, "geometry": { "type": "Point", "coordinates": [ -84.4051558, 33.781857 ] } },
{ "type": "Feature", "properties": { "amenity": "restaurant", "name": "Fire of Brazil", "cuisine": null, "addr:housenumber": null, "addr:street": null, "addr:postcode": null, "addr:city": null, "website": null, "addr:state": null, "opening_hours": null, "phone": null, "wheelchair": null, "outdoor_seating": null, "takeaway": null, "smoking": null, "delivery": null, "addr:country": null, "addr:unit": null, "capacity": null, "internet_access": null }, "geometry": { "type": "Point", "coordinates": [ -84.3878599, 33.759843 ] } },
{ "type": "Feature", "properties": { "amenity": "restaurant", "name": "Five Guys", "cuisine": "burger", "addr:housenumber": "860", "addr:street": "Peachtree Street Northeast", "addr:postcode": "30308", "addr:city": "Atlanta", "website": null, "addr:state": "GA", "opening_hours": null, "phone": null, "wheelchair": null, "outdoor_seating": "yes", "takeaway": null, "smoking": null, "delivery": null, "addr:country": null, "addr:unit": null, "capacity": null, "internet_access": null }, "geometry": { "type": "Point", "coordinates": [ -84.3845449, 33.7781167 ] } },
{ "type": "Feature", "properties": { "amenity": "restaurant", "name": "Flip Burger", "cuisine": "burger", "addr:housenumber": "1587", "addr:street": "Howell Mill Road", "addr:postcode": "30318", "addr:city": "Atlanta", "website": null, "addr:state": "GA", "opening_hours": null, "phone": null, "wheelchair": null, "outdoor_seating": null, "takeaway": null, "smoking": null, "delivery": null, "addr:country": null, "addr:unit": null, "capacity": null, "internet_access": null }, "geometry": { "type": "Point", "coordinates": [ -84.415796, 33.7983541 ] } },
{ "type": "Feature", "properties": { "amenity": "restaurant", "name": "Flying Biscuit", "cuisine": "american", "addr:housenumber": null, "addr:street": null, "addr:postcode": null, "addr:city": null, "website": null, "addr:state": null, "opening_hours": null, "phone": null, "wheelchair": null, "outdoor_seating": null, "takeaway": null, "smoking": null, "delivery": null, "addr:country": null, "addr:unit": null, "capacity": null, "internet_access": null }, "geometry": { "type": "Point", "coordinates": [ -84.3802349, 33.7819301 ] } },
{ "type": "Feature", "properties": { "amenity": "restaurant", "name": "Folk Art", "cuisine": "american", "addr:housenumber": null, "addr:street": null, "addr:postcode": null, "addr:city": null, "website": null, "addr:state": null, "opening_hours": null, "phone": null, "wheelchair": "yes", "outdoor_seating": "no", "takeaway": "yes", "smoking": "no", "delivery": "no", "addr:country": null, "addr:unit": null, "capacity": null, "internet_access": "wlan" }, "geometry": { "type": "Point", "coordinates": [ -84.352974, 33.766636 ] } },
{ "type": "Feature", "properties": { "amenity": "restaurant", "name": "Fontaine's", "cuisine": "seafood", "addr:housenumber": null, "addr:street": null, "addr:postcode": null, "addr:city": null, "website": null, "addr:state": null, "opening_hours": null, "phone": null, "wheelchair": null, "outdoor_seating": null, "takeaway": null, "smoking": null, "delivery": null, "addr:country": null, "addr:unit": null, "capacity": null, "internet_access": null }, "geometry": { "type": "Point", "coordinates": [ -84.3545294, 33.7826034 ] } },
{ "type": "Feature", "properties": { "amenity": "restaurant", "name": "Fox Brothers BBQ", "cuisine": "barbecue", "addr:housenumber": null, "addr:street": null, "addr:postcode": null, "addr:city": null, "website": "http:\/\/www.foxbrosbbq.com\/", "addr:state": null, "opening_hours": null, "phone": null, "wheelchair": null, "outdoor_seating": null, "takeaway": null, "smoking": null, "delivery": null, "addr:country": null, "addr:unit": null, "capacity": null, "internet_access": null }, "geometry": { "type": "Point", "coordinates": [ -84.3474244, 33.7609981 ] } },
{ "type": "Feature", "properties": { "amenity": "restaurant", "name": "Fred's Country Kitchen", "cuisine": "regional", "addr:housenumber": "132", "addr:street": "Mitchell Street Southwest", "addr:postcode": "30303", "addr:city": "Atlanta", "website": null, "addr:state": "GA", "opening_hours": "Mo-Su 07:00-15:00", "phone": "404-524-5665", "wheelchair": null, "outdoor_seating": null, "takeaway": null, "smoking": null, "delivery": null, "addr:country": null, "addr:unit": null, "capacity": null, "internet_access": null }, "geometry": { "type": "Point", "coordinates": [ -84.3922817, 33.7504068 ] } },
{ "type": "Feature", "properties": { "amenity": "restaurant", "name": "Fred's Meat & Bread", "cuisine": null, "addr:housenumber": null, "addr:street": null, "addr:postcode": null, "addr:city": null, "website": "http:\/\/www.fredsmeatandbread.com", "addr:state": null, "opening_hours": null, "phone": null, "wheelchair": null, "outdoor_seating": null, "takeaway": null, "smoking": null, "delivery": null, "addr:country": null, "addr:unit": null, "capacity": null, "internet_access": null }, "geometry": { "type": "Point", "coordinates": [ -84.3639682, 33.7569774 ] } },
{ "type": "Feature", "properties": { "amenity": "restaurant", "name": "Fresh 2 Order", "cuisine": "american", "addr:housenumber": null, "addr:street": null, "addr:postcode": null, "addr:city": null, "website": null, "addr:state": null, "opening_hours": "Mo-Sa 11:00-10:00, Su 10:00-21:00", "phone": null, "wheelchair": "yes", "outdoor_seating": "yes", "takeaway": "yes", "smoking": "no", "delivery": "yes", "addr:country": null, "addr:unit": null, "capacity": null, "internet_access": null }, "geometry": { "type": "Point", "coordinates": [ -84.384561, 33.778257 ] } },
{ "type": "Feature", "properties": { "amenity": "restaurant", "name": "F.R.O.G.S. Cantina", "cuisine": "mexican", "addr:housenumber": null, "addr:street": null, "addr:postcode": null, "addr:city": null, "website": null, "addr:state": null, "opening_hours": null, "phone": null, "wheelchair": null, "outdoor_seating": null, "takeaway": null, "smoking": null, "delivery": null, "addr:country": null, "addr:unit": null, "capacity": null, "internet_access": null }, "geometry": { "type": "Point", "coordinates": [ -84.3681587, 33.7802361 ] } },
{ "type": "Feature", "properties": { "amenity": "restaurant", "name": "Gekko Sushi and Lounge", "cuisine": "sushi", "addr:housenumber": "620", "addr:street": "Glen Iris Drive NE", "addr:postcode": "30308", "addr:city": null, "website": "http:\/\/gekkosushiandlounge.com", "addr:state": null, "opening_hours": null, "phone": null, "wheelchair": null, "outdoor_seating": null, "takeaway": null, "smoking": null, "delivery": null, "addr:country": null, "addr:unit": null, "capacity": null, "internet_access": null }, "geometry": { "type": "Point", "coordinates": [ -84.3678707, 33.7713105 ] } },
{ "type": "Feature", "properties": { "amenity": "restaurant", "name": "George's", "cuisine": "burger", "addr:housenumber": null, "addr:street": null, "addr:postcode": null, "addr:city": null, "website": null, "addr:state": null, "opening_hours": null, "phone": null, "wheelchair": null, "outdoor_seating": null, "takeaway": null, "smoking": null, "delivery": null, "addr:country": null, "addr:unit": null, "capacity": null, "internet_access": null }, "geometry": { "type": "Point", "coordinates": [ -84.3542345, 33.7830231 ] } },
{ "type": "Feature", "properties": { "amenity": "restaurant", "name": "Georgia Grille", "cuisine": null, "addr:housenumber": null, "addr:street": null, "addr:postcode": null, "addr:city": null, "website": null, "addr:state": null, "opening_hours": null, "phone": null, "wheelchair": null, "outdoor_seating": null, "takeaway": null, "smoking": null, "delivery": null, "addr:country": null, "addr:unit": null, "capacity": null, "internet_access": null }, "geometry": { "type": "Point", "coordinates": [ -84.3902558, 33.8172035 ] } },
{ "type": "Feature", "properties": { "amenity": "restaurant", "name": "Gia's", "cuisine": "italian", "addr:housenumber": null, "addr:street": null, "addr:postcode": null, "addr:city": null, "website": null, "addr:state": null, "opening_hours": null, "phone": null, "wheelchair": null, "outdoor_seating": null, "takeaway": null, "smoking": null, "delivery": null, "addr:country": null, "addr:unit": null, "capacity": null, "internet_access": null }, "geometry": { "type": "Point", "coordinates": [ -84.4058271, 33.7849048 ] } },
{ "type": "Feature", "properties": { "amenity": "restaurant", "name": "Goin' Coastal", "cuisine": "seafood", "addr:housenumber": null, "addr:street": null, "addr:postcode": null, "addr:city": null, "website": null, "addr:state": null, "opening_hours": null, "phone": null, "wheelchair": null, "outdoor_seating": null, "takeaway": null, "smoking": null, "delivery": null, "addr:country": null, "addr:unit": null, "capacity": null, "internet_access": null }, "geometry": { "type": "Point", "coordinates": [ -84.3537994, 33.7822362 ] } },
{ "type": "Feature", "properties": { "amenity": "restaurant", "name": "Gordon Biersch", "cuisine": null, "addr:housenumber": null, "addr:street": null, "addr:postcode": null, "addr:city": null, "website": null, "addr:state": null, "opening_hours": null, "phone": null, "wheelchair": null, "outdoor_seating": null, "takeaway": null, "smoking": null, "delivery": null, "addr:country": null, "addr:unit": null, "capacity": null, "internet_access": null }, "geometry": { "type": "Point", "coordinates": [ -84.3731771, 33.8438905 ] } },
{ "type": "Feature", "properties": { "amenity": "restaurant", "name": "Grand Champion BBQ", "cuisine": "bbq", "addr:housenumber": null, "addr:street": null, "addr:postcode": null, "addr:city": null, "website": null, "addr:state": null, "opening_hours": null, "phone": null, "wheelchair": null, "outdoor_seating": null, "takeaway": null, "smoking": null, "delivery": null, "addr:country": null, "addr:unit": null, "capacity": null, "internet_access": null }, "geometry": { "type": "Point", "coordinates": [ -84.363988, 33.756661 ] } },
{ "type": "Feature", "properties": { "amenity": "restaurant", "name": "Grant Central Pizza", "cuisine": "pizza", "addr:housenumber": null, "addr:street": null, "addr:postcode": "30312-3250", "addr:city": null, "website": null, "addr:state": null, "opening_hours": null, "phone": "+1 404-523-8900", "wheelchair": null, "outdoor_seating": null, "takeaway": null, "smoking": null, "delivery": null, "addr:country": null, "addr:unit": null, "capacity": null, "internet_access": null }, "geometry": { "type": "Point", "coordinates": [ -84.3735188, 33.7422197 ] } },
{ "type": "Feature", "properties": { "amenity": "restaurant", "name": "Grant Central Pizza East", "cuisine": "pizza", "addr:housenumber": "1279", "addr:street": "Glenwood Avenue SE", "addr:postcode": "30316", "addr:city": null, "website": null, "addr:state": null, "opening_hours": null, "phone": null, "wheelchair": null, "outdoor_seating": null, "takeaway": null, "smoking": null, "delivery": null, "addr:country": null, "addr:unit": null, "capacity": null, "internet_access": null }, "geometry": { "type": "Point", "coordinates": [ -84.3456828, 33.7400291 ] } },
{ "type": "Feature", "properties": { "amenity": "restaurant", "name": "Gus's Fried Chicken", "cuisine": "chicken", "addr:housenumber": "231", "addr:street": "Peachtree Center Avenue Northeast", "addr:postcode": "30303", "addr:city": "Atlanta", "website": "http:\/\/gusfriedchicken.com\/atlanta-georgia-location\/", "addr:state": "GA", "opening_hours": "Su-Th 11:00-21:00; Fr-Sa 11:00-23:00", "phone": null, "wheelchair": null, "outdoor_seating": null, "takeaway": null, "smoking": null, "delivery": null, "addr:country": null, "addr:unit": null, "capacity": null, "internet_access": null }, "geometry": { "type": "Point", "coordinates": [ -84.3862442, 33.7602947 ] } },
{ "type": "Feature", "properties": { "amenity": "restaurant", "name": "Gypsy Kitchen", "cuisine": null, "addr:housenumber": null, "addr:street": null, "addr:postcode": null, "addr:city": null, "website": null, "addr:state": null, "opening_hours": null, "phone": null, "wheelchair": null, "outdoor_seating": null, "takeaway": null, "smoking": null, "delivery": null, "addr:country": null, "addr:unit": null, "capacity": null, "internet_access": null }, "geometry": { "type": "Point", "coordinates": [ -84.380674, 33.837838 ] } },
{ "type": "Feature", "properties": { "amenity": "restaurant", "name": "Gyro Bros", "cuisine": "greek", "addr:housenumber": "860", "addr:street": "Peachtree Street Northeast", "addr:postcode": "30308", "addr:city": "Atlanta", "website": null, "addr:state": "GA", "opening_hours": null, "phone": null, "wheelchair": null, "outdoor_seating": null, "takeaway": null, "smoking": null, "delivery": null, "addr:country": null, "addr:unit": null, "capacity": null, "internet_access": null }, "geometry": { "type": "Point", "coordinates": [ -84.3845996, 33.7780792 ] } },
{ "type": "Feature", "properties": { "amenity": "restaurant", "name": "Gyro Bros", "cuisine": "greek", "addr:housenumber": null, "addr:street": null, "addr:postcode": null, "addr:city": null, "website": null, "addr:state": null, "opening_hours": null, "phone": null, "wheelchair": null, "outdoor_seating": null, "takeaway": null, "smoking": null, "delivery": null, "addr:country": null, "addr:unit": null, "capacity": null, "internet_access": null }, "geometry": { "type": "Point", "coordinates": [ -84.3900992, 33.7770131 ] } },
{ "type": "Feature", "properties": { "amenity": "restaurant", "name": "Hal’s Steakhouse", "cuisine": "steak_house", "addr:housenumber": null, "addr:street": null, "addr:postcode": "30305", "addr:city": null, "website": null, "addr:state": null, "opening_hours": null, "phone": null, "wheelchair": null, "outdoor_seating": null, "takeaway": null, "smoking": null, "delivery": null, "addr:country": null, "addr:unit": null, "capacity": null, "internet_access": null }, "geometry": { "type": "Point", "coordinates": [ -84.3816904, 33.8546929 ] } },
{ "type": "Feature", "properties": { "amenity": "restaurant", "name": "Hard Rock Cafe Atlanta", "cuisine": null, "addr:housenumber": "215", "addr:street": "Peachtree Street Northeast", "addr:postcode": "30303", "addr:city": "Atlanta", "website": null, "addr:state": "GA", "opening_hours": null, "phone": null, "wheelchair": null, "outdoor_seating": null, "takeaway": null, "smoking": null, "delivery": null, "addr:country": null, "addr:unit": null, "capacity": null, "internet_access": null }, "geometry": { "type": "Point", "coordinates": [ -84.3873288, 33.7598608 ] } },
{ "type": "Feature", "properties": { "amenity": "restaurant", "name": "Harry & Sons", "cuisine": "sushi", "addr:housenumber": null, "addr:street": null, "addr:postcode": null, "addr:city": null, "website": null, "addr:state": null, "opening_hours": null, "phone": null, "wheelchair": null, "outdoor_seating": null, "takeaway": null, "smoking": null, "delivery": null, "addr:country": null, "addr:unit": null, "capacity": null, "internet_access": null }, "geometry": { "type": "Point", "coordinates": [ -84.3526587, 33.7769211 ] } },
{ "type": "Feature", "properties": { "amenity": "restaurant", "name": "Highland Bakery", "cuisine": "bakery;sandwiches", "addr:housenumber": null, "addr:street": null, "addr:postcode": null, "addr:city": null, "website": null, "addr:state": null, "opening_hours": null, "phone": null, "wheelchair": null, "outdoor_seating": null, "takeaway": null, "smoking": null, "delivery": null, "addr:country": null, "addr:unit": null, "capacity": null, "internet_access": null }, "geometry": { "type": "Point", "coordinates": [ -84.3877711, 33.7553912 ] } },
{ "type": "Feature", "properties": { "amenity": "restaurant", "name": "Highland Tap", "cuisine": "steak_house", "addr:housenumber": null, "addr:street": null, "addr:postcode": null, "addr:city": null, "website": null, "addr:state": null, "opening_hours": null, "phone": null, "wheelchair": null, "outdoor_seating": null, "takeaway": null, "smoking": null, "delivery": null, "addr:country": null, "addr:unit": null, "capacity": null, "internet_access": null }, "geometry": { "type": "Point", "coordinates": [ -84.3545335, 33.7825288 ] } },
{ "type": "Feature", "properties": { "amenity": "restaurant", "name": "Holy Taco", "cuisine": "mexican", "addr:housenumber": "1314", "addr:street": "Glenwood Avenue SE", "addr:postcode": "30316", "addr:city": null, "website": "http:\/\/www.holy-taco.com\/", "addr:state": null, "opening_hours": null, "phone": null, "wheelchair": null, "outdoor_seating": null, "takeaway": null, "smoking": null, "delivery": null, "addr:country": null, "addr:unit": null, "capacity": null, "internet_access": null }, "geometry": { "type": "Point", "coordinates": [ -84.3446271, 33.7403114 ] } },
{ "type": "Feature", "properties": { "amenity": "restaurant", "name": "Homegrown", "cuisine": "breakfast", "addr:housenumber": null, "addr:street": null, "addr:postcode": null, "addr:city": null, "website": null, "addr:state": null, "opening_hours": null, "phone": null, "wheelchair": "limited", "outdoor_seating": "no", "takeaway": null, "smoking": "no", "delivery": null, "addr:country": null, "addr:unit": null, "capacity": null, "internet_access": null }, "geometry": { "type": "Point", "coordinates": [ -84.355999, 33.746709 ] } },
{ "type": "Feature", "properties": { "amenity": "restaurant", "name": "Hong Kong Buffett", "cuisine": "chinese", "addr:housenumber": "131", "addr:street": "Cone Street Northwest", "addr:postcode": "30303", "addr:city": "Atlanta", "website": null, "addr:state": null, "opening_hours": null, "phone": null, "wheelchair": null, "outdoor_seating": null, "takeaway": null, "smoking": null, "delivery": null, "addr:country": "US", "addr:unit": null, "capacity": null, "internet_access": null }, "geometry": { "type": "Point", "coordinates": [ -84.3896289, 33.7580206 ] } },
{ "type": "Feature", "properties": { "amenity": "restaurant", "name": "Hooters", "cuisine": null, "addr:housenumber": "209", "addr:street": "Peachtree Street Northeast", "addr:postcode": "30303", "addr:city": "Atlanta", "website": null, "addr:state": "GA", "opening_hours": null, "phone": null, "wheelchair": null, "outdoor_seating": null, "takeaway": null, "smoking": null, "delivery": null, "addr:country": null, "addr:unit": null, "capacity": null, "internet_access": "wlan" }, "geometry": { "type": "Point", "coordinates": [ -84.3873887, 33.7595342 ] } },
{ "type": "Feature", "properties": { "amenity": "restaurant", "name": "Ikea Restaurant", "cuisine": null, "addr:housenumber": null, "addr:street": null, "addr:postcode": null, "addr:city": null, "website": null, "addr:state": null, "opening_hours": null, "phone": null, "wheelchair": null, "outdoor_seating": null, "takeaway": null, "smoking": null, "delivery": null, "addr:country": null, "addr:unit": null, "capacity": null, "internet_access": null }, "geometry": { "type": "Point", "coordinates": [ -84.4053911, 33.7884437 ] } },
{ "type": "Feature", "properties": { "amenity": "restaurant", "name": "Illegal Food", "cuisine": null, "addr:housenumber": "1044", "addr:street": "Greenwood Avenue Northeast", "addr:postcode": "30306", "addr:city": "Atlanta", "website": null, "addr:state": null, "opening_hours": null, "phone": null, "wheelchair": null, "outdoor_seating": null, "takeaway": null, "smoking": null, "delivery": "no", "addr:country": null, "addr:unit": null, "capacity": null, "internet_access": null }, "geometry": { "type": "Point", "coordinates": [ -84.3530763, 33.7768443 ] } },
{ "type": "Feature", "properties": { "amenity": "restaurant", "name": "Jamrock", "cuisine": null, "addr:housenumber": "111", "addr:street": "Martin Luther King Junior Drive Southwest", "addr:postcode": "30303", "addr:city": "Atlanta", "website": null, "addr:state": "GA", "opening_hours": null, "phone": null, "wheelchair": null, "outdoor_seating": "no", "takeaway": null, "smoking": null, "delivery": null, "addr:country": null, "addr:unit": null, "capacity": null, "internet_access": null }, "geometry": { "type": "Point", "coordinates": [ -84.3913012, 33.751784 ] } },
{ "type": "Feature", "properties": { "amenity": "restaurant", "name": "JCT", "cuisine": null, "addr:housenumber": null, "addr:street": null, "addr:postcode": null, "addr:city": null, "website": null, "addr:state": null, "opening_hours": null, "phone": null, "wheelchair": null, "outdoor_seating": null, "takeaway": null, "smoking": null, "delivery": null, "addr:country": null, "addr:unit": null, "capacity": null, "internet_access": null }, "geometry": { "type": "Point", "coordinates": [ -84.412288, 33.7865776 ] } },
{ "type": "Feature", "properties": { "amenity": "restaurant", "name": "Jia", "cuisine": "chinese", "addr:housenumber": null, "addr:street": null, "addr:postcode": null, "addr:city": null, "website": null, "addr:state": null, "opening_hours": null, "phone": null, "wheelchair": null, "outdoor_seating": null, "takeaway": null, "smoking": null, "delivery": null, "addr:country": null, "addr:unit": null, "capacity": null, "internet_access": null }, "geometry": { "type": "Point", "coordinates": [ -84.365937, 33.7728967 ] } },
{ "type": "Feature", "properties": { "amenity": "restaurant", "name": "Jimmy John's", "cuisine": "sandwich", "addr:housenumber": "1605", "addr:street": "Howell Mill Road", "addr:postcode": "30318", "addr:city": "Atlanta", "website": null, "addr:state": "GA", "opening_hours": null, "phone": null, "wheelchair": null, "outdoor_seating": null, "takeaway": null, "smoking": null, "delivery": null, "addr:country": null, "addr:unit": null, "capacity": null, "internet_access": null }, "geometry": { "type": "Point", "coordinates": [ -84.415765, 33.7990662 ] } },
{ "type": "Feature", "properties": { "amenity": "restaurant", "name": "Jimmy John's", "cuisine": "sandwich", "addr:housenumber": null, "addr:street": null, "addr:postcode": null, "addr:city": null, "website": null, "addr:state": null, "opening_hours": null, "phone": null, "wheelchair": null, "outdoor_seating": null, "takeaway": null, "smoking": null, "delivery": null, "addr:country": null, "addr:unit": null, "capacity": null, "internet_access": null }, "geometry": { "type": "Point", "coordinates": [ -84.3990859, 33.786412 ] } },
{ "type": "Feature", "properties": { "amenity": "restaurant", "name": "JINYA RAMEN Bar", "cuisine": "ramen", "addr:housenumber": "3714", "addr:street": "Roswell Road", "addr:postcode": "30342", "addr:city": "Atlanta", "website": null, "addr:state": "GA", "opening_hours": null, "phone": null, "wheelchair": null, "outdoor_seating": null, "takeaway": "yes", "smoking": null, "delivery": "no", "addr:country": null, "addr:unit": "35", "capacity": "50", "internet_access": null }, "geometry": { "type": "Point", "coordinates": [ -84.3827845, 33.8566636 ] } },
{ "type": "Feature", "properties": { "amenity": "restaurant", "name": "J.R. Cricket's", "cuisine": "american;wings", "addr:housenumber": null, "addr:street": null, "addr:postcode": null, "addr:city": null, "website": null, "addr:state": null, "opening_hours": null, "phone": null, "wheelchair": null, "outdoor_seating": null, "takeaway": null, "smoking": null, "delivery": null, "addr:country": null, "addr:unit": null, "capacity": null, "internet_access": null }, "geometry": { "type": "Point", "coordinates": [ -84.3831791, 33.7710404 ] } },
{ "type": "Feature", "properties": { "amenity": "restaurant", "name": "Kale Me Crazy", "cuisine": "juice_bar", "addr:housenumber": "300", "addr:street": "North Highland Avenue Northeast", "addr:postcode": "30307", "addr:city": "Atlanta", "website": null, "addr:state": null, "opening_hours": null, "phone": null, "wheelchair": null, "outdoor_seating": null, "takeaway": null, "smoking": null, "delivery": null, "addr:country": null, "addr:unit": null, "capacity": null, "internet_access": null }, "geometry": { "type": "Point", "coordinates": [ -84.3584245, 33.7628754 ] } },
{ "type": "Feature", "properties": { "amenity": "restaurant", "name": "Kale Me Crazy", "cuisine": null, "addr:housenumber": "100", "addr:street": "6th Street Northeast", "addr:postcode": "30308", "addr:city": "Atlanta", "website": "https:\/\/kalemecrazy.net\/locations\/midtown-atlanta-ga\/", "addr:state": "GA", "opening_hours": null, "phone": null, "wheelchair": null, "outdoor_seating": null, "takeaway": null, "smoking": null, "delivery": null, "addr:country": null, "addr:unit": null, "capacity": null, "internet_access": null }, "geometry": { "type": "Point", "coordinates": [ -84.3830267, 33.7774057 ] } },
{ "type": "Feature", "properties": { "amenity": "restaurant", "name": "Kelz Kitchen & Speakeasy Lounge", "cuisine": null, "addr:housenumber": "156", "addr:street": "Forsyth Street Northwest", "addr:postcode": "30303", "addr:city": "Atlanta", "website": null, "addr:state": "GA", "opening_hours": null, "phone": "404-552-0323", "wheelchair": null, "outdoor_seating": null, "takeaway": null, "smoking": null, "delivery": null, "addr:country": null, "addr:unit": null, "capacity": null, "internet_access": null }, "geometry": { "type": "Point", "coordinates": [ -84.395171, 33.7501593 ] } },
{ "type": "Feature", "properties": { "amenity": "restaurant", "name": "King + Duke", "cuisine": "american", "addr:housenumber": "3060", "addr:street": "Peachtree Road", "addr:postcode": "30305", "addr:city": "Atlanta", "website": null, "addr:state": "GA", "opening_hours": null, "phone": null, "wheelchair": null, "outdoor_seating": null, "takeaway": null, "smoking": null, "delivery": null, "addr:country": null, "addr:unit": null, "capacity": null, "internet_access": null }, "geometry": { "type": "Point", "coordinates": [ -84.3807154, 33.8392219 ] } },
{ "type": "Feature", "properties": { "amenity": "restaurant", "name": "Kirkyard Public House", "cuisine": null, "addr:housenumber": null, "addr:street": null, "addr:postcode": null, "addr:city": null, "website": null, "addr:state": null, "opening_hours": null, "phone": null, "wheelchair": null, "outdoor_seating": null, "takeaway": null, "smoking": null, "delivery": null, "addr:country": null, "addr:unit": null, "capacity": null, "internet_access": null }, "geometry": { "type": "Point", "coordinates": [ -84.3233689, 33.7516394 ] } },
{ "type": "Feature", "properties": { "amenity": "restaurant", "name": "Krog Bar", "cuisine": "tapas", "addr:housenumber": null, "addr:street": null, "addr:postcode": null, "addr:city": null, "website": null, "addr:state": null, "opening_hours": null, "phone": null, "wheelchair": null, "outdoor_seating": null, "takeaway": "no", "smoking": "outside", "delivery": null, "addr:country": null, "addr:unit": null, "capacity": null, "internet_access": null }, "geometry": { "type": "Point", "coordinates": [ -84.3644789, 33.7562567 ] } },
{ "type": "Feature", "properties": { "amenity": "restaurant", "name": "Lady Bird", "cuisine": "american", "addr:housenumber": null, "addr:street": null, "addr:postcode": null, "addr:city": null, "website": null, "addr:state": null, "opening_hours": null, "phone": null, "wheelchair": null, "outdoor_seating": null, "takeaway": null, "smoking": null, "delivery": null, "addr:country": null, "addr:unit": null, "capacity": null, "internet_access": null }, "geometry": { "type": "Point", "coordinates": [ -84.3642227, 33.759606 ] } },
{ "type": "Feature", "properties": { "amenity": "restaurant", "name": "La Fonda Latina", "cuisine": "mexican", "addr:housenumber": "1639", "addr:street": null, "addr:postcode": null, "addr:city": null, "website": "fellinisatlanta.com\/lafonda.html", "addr:state": null, "opening_hours": null, "phone": null, "wheelchair": null, "outdoor_seating": null, "takeaway": null, "smoking": null, "delivery": null, "addr:country": null, "addr:unit": null, "capacity": null, "internet_access": null }, "geometry": { "type": "Point", "coordinates": [ -84.3338001, 33.7647556 ] } },
{ "type": "Feature", "properties": { "amenity": "restaurant", "name": "La Fonda Latin Cuisine", "cuisine": null, "addr:housenumber": null, "addr:street": null, "addr:postcode": null, "addr:city": null, "website": null, "addr:state": null, "opening_hours": null, "phone": null, "wheelchair": null, "outdoor_seating": null, "takeaway": null, "smoking": null, "delivery": null, "addr:country": null, "addr:unit": null, "capacity": null, "internet_access": null }, "geometry": { "type": "Point", "coordinates": [ -84.3571312, 33.7735134 ] } },
{ "type": "Feature", "properties": { "amenity": "restaurant", "name": "La Parilla", "cuisine": "mexican", "addr:housenumber": null, "addr:street": null, "addr:postcode": null, "addr:city": null, "website": null, "addr:state": null, "opening_hours": null, "phone": null, "wheelchair": null, "outdoor_seating": null, "takeaway": null, "smoking": null, "delivery": null, "addr:country": null, "addr:unit": null, "capacity": null, "internet_access": null }, "geometry": { "type": "Point", "coordinates": [ -84.4125407, 33.8033837 ] } },
{ "type": "Feature", "properties": { "amenity": "restaurant", "name": "La Tavola", "cuisine": "italian", "addr:housenumber": "992", "addr:street": "Virginia Avenue Northeast", "addr:postcode": "30306", "addr:city": "Atlanta", "website": "http:\/\/latavolatrattoria.com\/", "addr:state": "GA", "opening_hours": "Mo-Th 17:30-22:00; Fr,Sa 17:30-23:00; Su 11:00-15:00,17:30-22:00", "phone": "+1 404 873 5430", "wheelchair": null, "outdoor_seating": null, "takeaway": null, "smoking": null, "delivery": null, "addr:country": "US", "addr:unit": null, "capacity": null, "internet_access": null }, "geometry": { "type": "Point", "coordinates": [ -84.3549103, 33.7824468 ] } },
{ "type": "Feature", "properties": { "amenity": "restaurant", "name": "Le Bilboquet", "cuisine": "french", "addr:housenumber": "3035", "addr:street": "Peachtree Road", "addr:postcode": "30305", "addr:city": "Atlanta", "website": null, "addr:state": "GA", "opening_hours": null, "phone": null, "wheelchair": null, "outdoor_seating": null, "takeaway": null, "smoking": null, "delivery": null, "addr:country": null, "addr:unit": null, "capacity": null, "internet_access": null }, "geometry": { "type": "Point", "coordinates": [ -84.3803775, 33.8376945 ] } },
{ "type": "Feature", "properties": { "amenity": "restaurant", "name": "Le Fat", "cuisine": "vietnamese;french", "addr:housenumber": null, "addr:street": null, "addr:postcode": null, "addr:city": null, "website": null, "addr:state": null, "opening_hours": null, "phone": null, "wheelchair": null, "outdoor_seating": null, "takeaway": null, "smoking": null, "delivery": null, "addr:country": null, "addr:unit": null, "capacity": null, "internet_access": "wlan" }, "geometry": { "type": "Point", "coordinates": [ -84.4089365, 33.7782031 ] } },
{ "type": "Feature", "properties": { "amenity": "restaurant", "name": "Le Petit Marche", "cuisine": "breakfast_and_lunch", "addr:housenumber": null, "addr:street": null, "addr:postcode": null, "addr:city": null, "website": null, "addr:state": null, "opening_hours": null, "phone": null, "wheelchair": null, "outdoor_seating": null, "takeaway": null, "smoking": "no", "delivery": null, "addr:country": null, "addr:unit": null, "capacity": null, "internet_access": null }, "geometry": { "type": "Point", "coordinates": [ -84.3225589, 33.7514788 ] } },
{ "type": "Feature", "properties": { "amenity": "restaurant", "name": "Little 5 Points Pizza", "cuisine": "pizza", "addr:housenumber": null, "addr:street": null, "addr:postcode": null, "addr:city": null, "website": null, "addr:state": null, "opening_hours": null, "phone": null, "wheelchair": null, "outdoor_seating": null, "takeaway": null, "smoking": null, "delivery": null, "addr:country": null, "addr:unit": null, "capacity": null, "internet_access": null }, "geometry": { "type": "Point", "coordinates": [ -84.3493587, 33.765696 ] } },
{ "type": "Feature", "properties": { "amenity": "restaurant", "name": "Little Azios", "cuisine": "pizza", "addr:housenumber": "749", "addr:street": "Moreland Ave.", "addr:postcode": "30316", "addr:city": null, "website": "http:\/\/www.littleazio.com", "addr:state": null, "opening_hours": null, "phone": null, "wheelchair": null, "outdoor_seating": null, "takeaway": null, "smoking": null, "delivery": null, "addr:country": null, "addr:unit": null, "capacity": null, "internet_access": null }, "geometry": { "type": "Point", "coordinates": [ -84.3494935, 33.7339183 ] } },
{ "type": "Feature", "properties": { "amenity": "restaurant", "name": "Loco's", "cuisine": null, "addr:housenumber": null, "addr:street": null, "addr:postcode": null, "addr:city": null, "website": null, "addr:state": null, "opening_hours": null, "phone": null, "wheelchair": null, "outdoor_seating": null, "takeaway": null, "smoking": null, "delivery": null, "addr:country": null, "addr:unit": null, "capacity": null, "internet_access": null }, "geometry": { "type": "Point", "coordinates": [ -84.3756209, 33.8406161 ] } },
{ "type": "Feature", "properties": { "amenity": "restaurant", "name": "LottaFrutta", "cuisine": "sandwich", "addr:housenumber": null, "addr:street": null, "addr:postcode": "30312", "addr:city": null, "website": "https:\/\/www.lottafrutta.com\/", "addr:state": null, "opening_hours": "Tu-Su 12:00-17:00", "phone": "4045880857", "wheelchair": null, "outdoor_seating": null, "takeaway": null, "smoking": null, "delivery": null, "addr:country": null, "addr:unit": null, "capacity": null, "internet_access": null }, "geometry": { "type": "Point", "coordinates": [ -84.3680886, 33.7559246 ] } },
{ "type": "Feature", "properties": { "amenity": "restaurant", "name": "Lovies BBQ", "cuisine": null, "addr:housenumber": null, "addr:street": null, "addr:postcode": "30305", "addr:city": null, "website": "https:\/\/loviesbbq.com\/", "addr:state": null, "opening_hours": null, "phone": "+1 404-254-2848", "wheelchair": null, "outdoor_seating": null, "takeaway": null, "smoking": null, "delivery": null, "addr:country": null, "addr:unit": null, "capacity": null, "internet_access": null }, "geometry": { "type": "Point", "coordinates": [ -84.3740024, 33.8480077 ] } },
{ "type": "Feature", "properties": { "amenity": "restaurant", "name": "Lucky Buddha", "cuisine": "chinese", "addr:housenumber": "531", "addr:street": "Hemphill Avenue Northwest", "addr:postcode": "30318", "addr:city": "Atlanta", "website": null, "addr:state": "GA", "opening_hours": null, "phone": null, "wheelchair": null, "outdoor_seating": null, "takeaway": null, "smoking": null, "delivery": null, "addr:country": null, "addr:unit": null, "capacity": null, "internet_access": null }, "geometry": { "type": "Point", "coordinates": [ -84.4047769, 33.7818632 ] } },
{ "type": "Feature", "properties": { "amenity": "restaurant", "name": "Luminary", "cuisine": "french", "addr:housenumber": null, "addr:street": null, "addr:postcode": null, "addr:city": null, "website": null, "addr:state": null, "opening_hours": null, "phone": null, "wheelchair": "yes", "outdoor_seating": "yes", "takeaway": "no", "smoking": "outside", "delivery": null, "addr:country": null, "addr:unit": null, "capacity": null, "internet_access": null }, "geometry": { "type": "Point", "coordinates": [ -84.364222, 33.756431 ] } },
{ "type": "Feature", "properties": { "amenity": "restaurant", "name": "Luna Nueva", "cuisine": "Mexican Bar & Grill", "addr:housenumber": null, "addr:street": null, "addr:postcode": null, "addr:city": null, "website": null, "addr:state": null, "opening_hours": null, "phone": null, "wheelchair": null, "outdoor_seating": null, "takeaway": null, "smoking": null, "delivery": null, "addr:country": null, "addr:unit": null, "capacity": null, "internet_access": null }, "geometry": { "type": "Point", "coordinates": [ -84.3497971, 33.7651102 ] } },
{ "type": "Feature", "properties": { "amenity": "restaurant", "name": "Maggiano's Little Italy", "cuisine": "Italian-American", "addr:housenumber": "3368", "addr:street": "Peachtree Road", "addr:postcode": "30326", "addr:city": "Atlanta", "website": "https:\/\/locations.maggianos.com\/georgia\/atlanta\/30326\/3368-peachtree-rd-", "addr:state": "GA", "opening_hours": "Mo-Th 11:00-22:00; Fr-Sa 11:00-23:00; Su 11:00-21:00", "phone": "+1 (404) 816-9650", "wheelchair": null, "outdoor_seating": "yes", "takeaway": "yes", "smoking": null, "delivery": "yes", "addr:country": null, "addr:unit": null, "capacity": null, "internet_access": null }, "geometry": { "type": "Point", "coordinates": [ -84.3673571, 33.8481716 ] } },
{ "type": "Feature", "properties": { "amenity": "restaurant", "name": "Malaya", "cuisine": "asian", "addr:housenumber": null, "addr:street": null, "addr:postcode": null, "addr:city": null, "website": null, "addr:state": null, "opening_hours": null, "phone": null, "wheelchair": null, "outdoor_seating": null, "takeaway": null, "smoking": null, "delivery": null, "addr:country": null, "addr:unit": null, "capacity": null, "internet_access": null }, "geometry": { "type": "Point", "coordinates": [ -84.416397, 33.8102922 ] } },
{ "type": "Feature", "properties": { "amenity": "restaurant", "name": "Mama Niki's Pizza", "cuisine": "pizza", "addr:housenumber": "1715", "addr:street": "Howell Mill Road Northwest", "addr:postcode": "30318", "addr:city": null, "website": null, "addr:state": null, "opening_hours": null, "phone": null, "wheelchair": null, "outdoor_seating": null, "takeaway": null, "smoking": null, "delivery": null, "addr:country": null, "addr:unit": null, "capacity": null, "internet_access": null }, "geometry": { "type": "Point", "coordinates": [ -84.4127484, 33.8024099 ] } },
{ "type": "Feature", "properties": { "amenity": "restaurant", "name": "Marlow's Tavern", "cuisine": "Pub_Food", "addr:housenumber": "950", "addr:street": "West Peachtree Street Northwest", "addr:postcode": "30309", "addr:city": "Atlanta", "website": null, "addr:state": null, "opening_hours": null, "phone": null, "wheelchair": null, "outdoor_seating": null, "takeaway": null, "smoking": null, "delivery": null, "addr:country": null, "addr:unit": null, "capacity": null, "internet_access": null }, "geometry": { "type": "Point", "coordinates": [ -84.387478, 33.7796785 ] } },
{ "type": "Feature", "properties": { "amenity": "restaurant", "name": "Mary Mac's Tea Room", "cuisine": "regional", "addr:housenumber": null, "addr:street": null, "addr:postcode": null, "addr:city": null, "website": null, "addr:state": null, "opening_hours": null, "phone": null, "wheelchair": null, "outdoor_seating": null, "takeaway": null, "smoking": null, "delivery": null, "addr:country": null, "addr:unit": null, "capacity": null, "internet_access": null }, "geometry": { "type": "Point", "coordinates": [ -84.3799419, 33.7728357 ] } },
{ "type": "Feature", "properties": { "amenity": "restaurant", "name": "Matador Cantina", "cuisine": "mexican", "addr:housenumber": null, "addr:street": null, "addr:postcode": null, "addr:city": null, "website": null, "addr:state": null, "opening_hours": null, "phone": null, "wheelchair": null, "outdoor_seating": null, "takeaway": null, "smoking": null, "delivery": null, "addr:country": null, "addr:unit": null, "capacity": null, "internet_access": null }, "geometry": { "type": "Point", "coordinates": [ -84.3576367, 33.7404492 ] } },
{ "type": "Feature", "properties": { "amenity": "restaurant", "name": "Max's Coal Oven Pizza", "cuisine": null, "addr:housenumber": null, "addr:street": null, "addr:postcode": null, "addr:city": null, "website": null, "addr:state": null, "opening_hours": null, "phone": null, "wheelchair": null, "outdoor_seating": null, "takeaway": null, "smoking": null, "delivery": null, "addr:country": null, "addr:unit": null, "capacity": null, "internet_access": null }, "geometry": { "type": "Point", "coordinates": [ -84.3964558, 33.7615575 ] } },
{ "type": "Feature", "properties": { "amenity": "restaurant", "name": "McCormick & Schmick's", "cuisine": "seafood", "addr:housenumber": null, "addr:street": null, "addr:postcode": null, "addr:city": null, "website": null, "addr:state": null, "opening_hours": null, "phone": null, "wheelchair": null, "outdoor_seating": null, "takeaway": null, "smoking": null, "delivery": null, "addr:country": null, "addr:unit": null, "capacity": null, "internet_access": null }, "geometry": { "type": "Point", "coordinates": [ -84.3940091, 33.7579777 ] } },
{ "type": "Feature", "properties": { "amenity": "restaurant", "name": "Mediterranean Grill", "cuisine": "kebab", "addr:housenumber": null, "addr:street": null, "addr:postcode": null, "addr:city": null, "website": null, "addr:state": null, "opening_hours": null, "phone": null, "wheelchair": null, "outdoor_seating": null, "takeaway": null, "smoking": null, "delivery": null, "addr:country": null, "addr:unit": null, "capacity": null, "internet_access": null }, "geometry": { "type": "Point", "coordinates": [ -84.368244, 33.7812855 ] } },
{ "type": "Feature", "properties": { "amenity": "restaurant", "name": "Mellow Mushroom", "cuisine": "pizza", "addr:housenumber": null, "addr:street": null, "addr:postcode": null, "addr:city": null, "website": null, "addr:state": null, "opening_hours": null, "phone": null, "wheelchair": null, "outdoor_seating": null, "takeaway": null, "smoking": null, "delivery": null, "addr:country": null, "addr:unit": null, "capacity": null, "internet_access": null }, "geometry": { "type": "Point", "coordinates": [ -84.3684008, 33.7802402 ] } },
{ "type": "Feature", "properties": { "amenity": "restaurant", "name": "Metro Fresh", "cuisine": null, "addr:housenumber": null, "addr:street": null, "addr:postcode": null, "addr:city": null, "website": null, "addr:state": null, "opening_hours": null, "phone": null, "wheelchair": null, "outdoor_seating": null, "takeaway": null, "smoking": null, "delivery": null, "addr:country": null, "addr:unit": null, "capacity": null, "internet_access": null }, "geometry": { "type": "Point", "coordinates": [ -84.3685239, 33.7803101 ] } },
{ "type": "Feature", "properties": { "amenity": "restaurant", "name": "Moe's", "cuisine": "southwestern_grille", "addr:housenumber": null, "addr:street": null, "addr:postcode": null, "addr:city": null, "website": null, "addr:state": null, "opening_hours": null, "phone": null, "wheelchair": null, "outdoor_seating": null, "takeaway": null, "smoking": null, "delivery": null, "addr:country": null, "addr:unit": null, "capacity": null, "internet_access": null }, "geometry": { "type": "Point", "coordinates": [ -84.3821172, 33.7549751 ] } },
{ "type": "Feature", "properties": { "amenity": "restaurant", "name": "Moe's BBQ", "cuisine": "barbecue", "addr:housenumber": null, "addr:street": null, "addr:postcode": null, "addr:city": null, "website": null, "addr:state": null, "opening_hours": null, "phone": null, "wheelchair": null, "outdoor_seating": null, "takeaway": null, "smoking": null, "delivery": null, "addr:country": null, "addr:unit": null, "capacity": null, "internet_access": null }, "geometry": { "type": "Point", "coordinates": [ -84.3985922, 33.7863234 ] } },
{ "type": "Feature", "properties": { "amenity": "restaurant", "name": "Moe's Southwest Grill", "cuisine": "mexican", "addr:housenumber": null, "addr:street": null, "addr:postcode": null, "addr:city": null, "website": null, "addr:state": null, "opening_hours": null, "phone": null, "wheelchair": "yes", "outdoor_seating": null, "takeaway": null, "smoking": null, "delivery": null, "addr:country": null, "addr:unit": null, "capacity": null, "internet_access": null }, "geometry": { "type": "Point", "coordinates": [ -84.3898846, 33.7770189 ] } },
{ "type": "Feature", "properties": { "amenity": "restaurant", "name": "Morelli's", "cuisine": "ice_cream", "addr:housenumber": "749", "addr:street": "Moreland Ave.", "addr:postcode": null, "addr:city": null, "website": "http:\/\/www.morellisicecream.com", "addr:state": null, "opening_hours": null, "phone": null, "wheelchair": null, "outdoor_seating": null, "takeaway": null, "smoking": null, "delivery": null, "addr:country": null, "addr:unit": null, "capacity": null, "internet_access": null }, "geometry": { "type": "Point", "coordinates": [ -84.3497107, 33.7339383 ] } },
{ "type": "Feature", "properties": { "amenity": "restaurant", "name": "Murphy's", "cuisine": "american", "addr:housenumber": null, "addr:street": null, "addr:postcode": null, "addr:city": null, "website": null, "addr:state": null, "opening_hours": null, "phone": null, "wheelchair": null, "outdoor_seating": null, "takeaway": null, "smoking": null, "delivery": null, "addr:country": null, "addr:unit": null, "capacity": null, "internet_access": null }, "geometry": { "type": "Point", "coordinates": [ -84.3548754, 33.7820577 ] } },
{ "type": "Feature", "properties": { "amenity": "restaurant", "name": "Nam", "cuisine": "vietnamese", "addr:housenumber": null, "addr:street": null, "addr:postcode": null, "addr:city": null, "website": null, "addr:state": null, "opening_hours": null, "phone": null, "wheelchair": null, "outdoor_seating": null, "takeaway": null, "smoking": null, "delivery": null, "addr:country": null, "addr:unit": null, "capacity": null, "internet_access": null }, "geometry": { "type": "Point", "coordinates": [ -84.3686254, 33.7803743 ] } },
{ "type": "Feature", "properties": { "amenity": "restaurant", "name": "Negril Village", "cuisine": "caribbean", "addr:housenumber": null, "addr:street": null, "addr:postcode": null, "addr:city": null, "website": "http:\/\/negrilvillageatl.com", "addr:state": null, "opening_hours": null, "phone": null, "wheelchair": null, "outdoor_seating": null, "takeaway": null, "smoking": null, "delivery": null, "addr:country": null, "addr:unit": null, "capacity": null, "internet_access": null }, "geometry": { "type": "Point", "coordinates": [ -84.3864288, 33.7715201 ] } },
{ "type": "Feature", "properties": { "amenity": "restaurant", "name": "Niramish", "cuisine": "indian", "addr:housenumber": null, "addr:street": null, "addr:postcode": null, "addr:city": null, "website": null, "addr:state": null, "opening_hours": null, "phone": null, "wheelchair": null, "outdoor_seating": null, "takeaway": null, "smoking": null, "delivery": null, "addr:country": null, "addr:unit": null, "capacity": null, "internet_access": null }, "geometry": { "type": "Point", "coordinates": [ -84.3500519, 33.7648928 ] } },
{ "type": "Feature", "properties": { "amenity": "restaurant", "name": "Noche", "cuisine": "spanish", "addr:housenumber": null, "addr:street": null, "addr:postcode": null, "addr:city": null, "website": null, "addr:state": null, "opening_hours": null, "phone": null, "wheelchair": null, "outdoor_seating": null, "takeaway": null, "smoking": null, "delivery": null, "addr:country": null, "addr:unit": null, "capacity": null, "internet_access": null }, "geometry": { "type": "Point", "coordinates": [ -84.3546814, 33.7825069 ] } },
{ "type": "Feature", "properties": { "amenity": "restaurant", "name": "No Mas Cantina", "cuisine": null, "addr:housenumber": null, "addr:street": null, "addr:postcode": null, "addr:city": null, "website": null, "addr:state": null, "opening_hours": null, "phone": null, "wheelchair": null, "outdoor_seating": null, "takeaway": null, "smoking": null, "delivery": null, "addr:country": null, "addr:unit": null, "capacity": null, "internet_access": null }, "geometry": { "type": "Point", "coordinates": [ -84.4010396, 33.7497028 ] } },
{ "type": "Feature", "properties": { "amenity": "restaurant", "name": "Noodles", "cuisine": "noodle", "addr:housenumber": "903", "addr:street": "Peachtree Street Northeast", "addr:postcode": "30309", "addr:city": "Atlanta", "website": null, "addr:state": null, "opening_hours": null, "phone": null, "wheelchair": null, "outdoor_seating": "no", "takeaway": "yes", "smoking": "no", "delivery": "yes", "addr:country": null, "addr:unit": "A", "capacity": null, "internet_access": null }, "geometry": { "type": "Point", "coordinates": [ -84.383836, 33.779119 ] } },
{ "type": "Feature", "properties": { "amenity": "restaurant", "name": "Olive Bistro", "cuisine": "mediterranean", "addr:housenumber": null, "addr:street": null, "addr:postcode": null, "addr:city": null, "website": null, "addr:state": null, "opening_hours": null, "phone": null, "wheelchair": null, "outdoor_seating": null, "takeaway": null, "smoking": null, "delivery": null, "addr:country": null, "addr:unit": null, "capacity": null, "internet_access": null }, "geometry": { "type": "Point", "coordinates": [ -84.3658702, 33.7739564 ] } },
{ "type": "Feature", "properties": { "amenity": "restaurant", "name": "One Eared Stag", "cuisine": "american", "addr:housenumber": null, "addr:street": null, "addr:postcode": null, "addr:city": null, "website": null, "addr:state": null, "opening_hours": null, "phone": null, "wheelchair": null, "outdoor_seating": null, "takeaway": null, "smoking": "outside", "delivery": "no", "addr:country": null, "addr:unit": null, "capacity": null, "internet_access": null }, "geometry": { "type": "Point", "coordinates": [ -84.3541153, 33.7572359 ] } },
{ "type": "Feature", "properties": { "amenity": "restaurant", "name": "Origin Market", "cuisine": null, "addr:housenumber": "117", "addr:street": "Martin Luther King Junior Drive Southwest", "addr:postcode": "30303", "addr:city": "Atlanta", "website": null, "addr:state": "GA", "opening_hours": null, "phone": null, "wheelchair": null, "outdoor_seating": "no", "takeaway": null, "smoking": null, "delivery": null, "addr:country": null, "addr:unit": null, "capacity": null, "internet_access": null }, "geometry": { "type": "Point", "coordinates": [ -84.391497, 33.7518844 ] } },
{ "type": "Feature", "properties": { "amenity": "restaurant", "name": "Osteria", "cuisine": "italian", "addr:housenumber": null, "addr:street": null, "addr:postcode": null, "addr:city": null, "website": null, "addr:state": null, "opening_hours": null, "phone": null, "wheelchair": null, "outdoor_seating": null, "takeaway": null, "smoking": null, "delivery": null, "addr:country": null, "addr:unit": null, "capacity": null, "internet_access": null }, "geometry": { "type": "Point", "coordinates": [ -84.3528518, 33.7772288 ] } },
{ "type": "Feature", "properties": { "amenity": "restaurant", "name": "Pacific Rim Bistro", "cuisine": null, "addr:housenumber": null, "addr:street": null, "addr:postcode": null, "addr:city": null, "website": null, "addr:state": null, "opening_hours": null, "phone": null, "wheelchair": null, "outdoor_seating": null, "takeaway": null, "smoking": null, "delivery": null, "addr:country": null, "addr:unit": null, "capacity": null, "internet_access": null }, "geometry": { "type": "Point", "coordinates": [ -84.3858457, 33.7624344 ] } },
{ "type": "Feature", "properties": { "amenity": "restaurant", "name": "Panera Bread", "cuisine": null, "addr:housenumber": "1080", "addr:street": "Peachtree Street Northeast", "addr:postcode": "30309", "addr:city": "Atlanta", "website": "https:\/\/www.panerabread.com\/", "addr:state": null, "opening_hours": null, "phone": null, "wheelchair": null, "outdoor_seating": null, "takeaway": null, "smoking": null, "delivery": null, "addr:country": null, "addr:unit": null, "capacity": null, "internet_access": null }, "geometry": { "type": "Point", "coordinates": [ -84.3836206, 33.7838568 ] } },
{ "type": "Feature", "properties": { "amenity": "restaurant", "name": "Panera Bread", "cuisine": null, "addr:housenumber": null, "addr:street": null, "addr:postcode": null, "addr:city": null, "website": null, "addr:state": null, "opening_hours": "Mo-Su 07:00-22:00", "phone": null, "wheelchair": null, "outdoor_seating": null, "takeaway": null, "smoking": null, "delivery": null, "addr:country": null, "addr:unit": null, "capacity": null, "internet_access": null }, "geometry": { "type": "Point", "coordinates": [ -84.4048241, 33.779426 ] } },
{ "type": "Feature", "properties": { "amenity": "restaurant", "name": "Papa John's", "cuisine": "pizza", "addr:housenumber": "1098", "addr:street": "Moreland Avenue Southeast", "addr:postcode": "30316", "addr:city": "Atlanta", "website": null, "addr:state": null, "opening_hours": null, "phone": null, "wheelchair": null, "outdoor_seating": null, "takeaway": null, "smoking": null, "delivery": null, "addr:country": null, "addr:unit": null, "capacity": null, "internet_access": null }, "geometry": { "type": "Point", "coordinates": [ -84.3492676, 33.7244746 ] } },
{ "type": "Feature", "properties": { "amenity": "restaurant", "name": "Papa John's", "cuisine": null, "addr:housenumber": null, "addr:street": null, "addr:postcode": null, "addr:city": null, "website": null, "addr:state": null, "opening_hours": null, "phone": null, "wheelchair": null, "outdoor_seating": null, "takeaway": null, "smoking": null, "delivery": null, "addr:country": null, "addr:unit": null, "capacity": null, "internet_access": null }, "geometry": { "type": "Point", "coordinates": [ -84.399268, 33.7817329 ] } },
{ "type": "Feature", "properties": { "amenity": "restaurant", "name": "Papi's", "cuisine": "cuban", "addr:housenumber": null, "addr:street": null, "addr:postcode": null, "addr:city": null, "website": null, "addr:state": null, "opening_hours": "Mo-Th 11:00-21:00; Fr,Sa 11:00-22:00; Su 12:00-20:00", "phone": null, "wheelchair": "yes", "outdoor_seating": null, "takeaway": null, "smoking": null, "delivery": null, "addr:country": null, "addr:unit": null, "capacity": null, "internet_access": null }, "geometry": { "type": "Point", "coordinates": [ -84.3804046, 33.7728401 ] } },
{ "type": "Feature", "properties": { "amenity": "restaurant", "name": "Parish Market Cajun Kitchen", "cuisine": null, "addr:housenumber": null, "addr:street": null, "addr:postcode": null, "addr:city": null, "website": null, "addr:state": null, "opening_hours": null, "phone": null, "wheelchair": null, "outdoor_seating": null, "takeaway": null, "smoking": null, "delivery": null, "addr:country": null, "addr:unit": null, "capacity": null, "internet_access": null }, "geometry": { "type": "Point", "coordinates": [ -84.3903816, 33.7581865 ] } },
{ "type": "Feature", "properties": { "amenity": "restaurant", "name": "Park Avenue Deli & Market", "cuisine": null, "addr:housenumber": null, "addr:street": null, "addr:postcode": null, "addr:city": null, "website": null, "addr:state": null, "opening_hours": null, "phone": null, "wheelchair": null, "outdoor_seating": null, "takeaway": null, "smoking": null, "delivery": null, "addr:country": null, "addr:unit": null, "capacity": null, "internet_access": null }, "geometry": { "type": "Point", "coordinates": [ -84.3941563, 33.7608829 ] } },
{ "type": "Feature", "properties": { "amenity": "restaurant", "name": "Paschal's Restaurant", "cuisine": null, "addr:housenumber": null, "addr:street": null, "addr:postcode": null, "addr:city": null, "website": null, "addr:state": null, "opening_hours": null, "phone": null, "wheelchair": null, "outdoor_seating": null, "takeaway": null, "smoking": null, "delivery": null, "addr:country": null, "addr:unit": null, "capacity": null, "internet_access": null }, "geometry": { "type": "Point", "coordinates": [ -84.4038884, 33.7494041 ] } },
{ "type": "Feature", "properties": { "amenity": "restaurant", "name": "Pasta Di Pulcinella", "cuisine": "italian", "addr:housenumber": null, "addr:street": null, "addr:postcode": "30309", "addr:city": null, "website": "http:\/\/pastadipulcinella.com", "addr:state": null, "opening_hours": null, "phone": "+1-404-876-1114", "wheelchair": null, "outdoor_seating": null, "takeaway": null, "smoking": null, "delivery": null, "addr:country": null, "addr:unit": null, "capacity": null, "internet_access": null }, "geometry": { "type": "Point", "coordinates": [ -84.3861066, 33.7854102 ] } },
{ "type": "Feature", "properties": { "amenity": "restaurant", "name": "Pasta Vino", "cuisine": "italian", "addr:housenumber": "2391", "addr:street": "Peachtree Road", "addr:postcode": "30305", "addr:city": "Atlanta", "website": null, "addr:state": "GA", "opening_hours": "Mon - Thu:  11:30am - 2:00pm, 5:00pm - 9:00pm Fri: 11:30am - 2:00pm, 5:00pm - 10:00pm Sat: 5:00pm - 10:00pm Sun: 5:00pm - 9:00pm", "phone": null, "wheelchair": "limited", "outdoor_seating": null, "takeaway": "yes", "smoking": null, "delivery": null, "addr:country": null, "addr:unit": null, "capacity": null, "internet_access": null }, "geometry": { "type": "Point", "coordinates": [ -84.3874384, 33.8201657 ] } },
{ "type": "Feature", "properties": { "amenity": "restaurant", "name": "Pauley's", "cuisine": null, "addr:housenumber": null, "addr:street": null, "addr:postcode": null, "addr:city": null, "website": null, "addr:state": null, "opening_hours": null, "phone": null, "wheelchair": null, "outdoor_seating": null, "takeaway": null, "smoking": null, "delivery": null, "addr:country": null, "addr:unit": null, "capacity": null, "internet_access": null }, "geometry": { "type": "Point", "coordinates": [ -84.4081264, 33.7773218 ] } },
{ "type": "Feature", "properties": { "amenity": "restaurant", "name": "Paul's Restaurant", "cuisine": "regional", "addr:housenumber": "10", "addr:street": "Kings Circle", "addr:postcode": null, "addr:city": null, "website": "http:\/\/www.greatfoodinc.com\/Pauls\/Pauls_Restaurant.html", "addr:state": null, "opening_hours": null, "phone": null, "wheelchair": null, "outdoor_seating": null, "takeaway": null, "smoking": null, "delivery": null, "addr:country": null, "addr:unit": null, "capacity": null, "internet_access": null }, "geometry": { "type": "Point", "coordinates": [ -84.3812037, 33.8179615 ] } },
{ "type": "Feature", "properties": { "amenity": "restaurant", "name": "Pero's Pizza & Pasta", "cuisine": "pizza", "addr:housenumber": "3521", "addr:street": "Northside Parkway Northwest", "addr:postcode": "30327", "addr:city": null, "website": "http:\/\/perospizzapasta.com\/", "addr:state": "GA", "opening_hours": "Mo-Fr 11:00-22:00; Sa-Su 16:00-22:00", "phone": "(404) 261-5077", "wheelchair": null, "outdoor_seating": null, "takeaway": null, "smoking": null, "delivery": null, "addr:country": "US", "addr:unit": null, "capacity": null, "internet_access": null }, "geometry": { "type": "Point", "coordinates": [ -84.4291581, 33.8509061 ] } },
{ "type": "Feature", "properties": { "amenity": "restaurant", "name": "Pho24", "cuisine": "vietnamese", "addr:housenumber": null, "addr:street": null, "addr:postcode": null, "addr:city": null, "website": null, "addr:state": null, "opening_hours": null, "phone": null, "wheelchair": null, "outdoor_seating": null, "takeaway": null, "smoking": null, "delivery": null, "addr:country": null, "addr:unit": null, "capacity": null, "internet_access": null }, "geometry": { "type": "Point", "coordinates": [ -84.387813, 33.762362 ] } },
{ "type": "Feature", "properties": { "amenity": "restaurant", "name": "PieBar (closed)", "cuisine": "italian", "addr:housenumber": null, "addr:street": null, "addr:postcode": null, "addr:city": null, "website": null, "addr:state": null, "opening_hours": null, "phone": null, "wheelchair": null, "outdoor_seating": null, "takeaway": null, "smoking": null, "delivery": null, "addr:country": null, "addr:unit": null, "capacity": null, "internet_access": null }, "geometry": { "type": "Point", "coordinates": [ -84.3700338, 33.8109643 ] } },
{ "type": "Feature", "properties": { "amenity": "restaurant", "name": "Pittypat's Porch", "cuisine": "american", "addr:housenumber": "25", "addr:street": "Andrew Young International Boulevard", "addr:postcode": "30303", "addr:city": null, "website": "https:\/\/www.pittypatsrestaurant.com\/", "addr:state": null, "opening_hours": null, "phone": "+1 404-525-8228", "wheelchair": null, "outdoor_seating": null, "takeaway": null, "smoking": null, "delivery": null, "addr:country": null, "addr:unit": null, "capacity": null, "internet_access": null }, "geometry": { "type": "Point", "coordinates": [ -84.3884733, 33.7598111 ] } },
{ "type": "Feature", "properties": { "amenity": "restaurant", "name": "Pizza Hut", "cuisine": "italian", "addr:housenumber": "555", "addr:street": "10th Street Northwest", "addr:postcode": "30318", "addr:city": "Atlanta", "website": null, "addr:state": "GA", "opening_hours": null, "phone": null, "wheelchair": null, "outdoor_seating": null, "takeaway": null, "smoking": null, "delivery": null, "addr:country": null, "addr:unit": null, "capacity": null, "internet_access": null }, "geometry": { "type": "Point", "coordinates": [ -84.4053703, 33.7818534 ] } },
{ "type": "Feature", "properties": { "amenity": "restaurant", "name": "Pizzaiolo", "cuisine": "pizza", "addr:housenumber": null, "addr:street": null, "addr:postcode": null, "addr:city": null, "website": null, "addr:state": null, "opening_hours": "Mo-We,Su 11:30-21:00;Th-Sa 11:30-22:00", "phone": null, "wheelchair": null, "outdoor_seating": null, "takeaway": null, "smoking": null, "delivery": null, "addr:country": null, "addr:unit": null, "capacity": null, "internet_access": null }, "geometry": { "type": "Point", "coordinates": [ -84.410157, 33.7787579 ] } },
{ "type": "Feature", "properties": { "amenity": "restaurant", "name": "Pomodoro", "cuisine": "italian", "addr:housenumber": null, "addr:street": null, "addr:postcode": null, "addr:city": null, "website": "pomodoroitalianrestaurant.com", "addr:state": null, "opening_hours": null, "phone": null, "wheelchair": null, "outdoor_seating": null, "takeaway": null, "smoking": null, "delivery": null, "addr:country": null, "addr:unit": null, "capacity": null, "internet_access": null }, "geometry": { "type": "Point", "coordinates": [ -84.3523488, 33.792625 ] } },
{ "type": "Feature", "properties": { "amenity": "restaurant", "name": "Poor Hendrix", "cuisine": null, "addr:housenumber": null, "addr:street": null, "addr:postcode": null, "addr:city": null, "website": null, "addr:state": null, "opening_hours": null, "phone": null, "wheelchair": null, "outdoor_seating": null, "takeaway": null, "smoking": null, "delivery": null, "addr:country": null, "addr:unit": null, "capacity": null, "internet_access": null }, "geometry": { "type": "Point", "coordinates": [ -84.3095202, 33.7510005 ] } },
{ "type": "Feature", "properties": { "amenity": "restaurant", "name": "Proof Bakeshop", "cuisine": "coffee_shop", "addr:housenumber": "100", "addr:street": "Hurt Street Northeast", "addr:postcode": "30307", "addr:city": "Atlanta", "website": null, "addr:state": null, "opening_hours": null, "phone": null, "wheelchair": null, "outdoor_seating": null, "takeaway": null, "smoking": null, "delivery": null, "addr:country": null, "addr:unit": null, "capacity": null, "internet_access": null }, "geometry": { "type": "Point", "coordinates": [ -84.3539874, 33.7569855 ] } },
{ "type": "Feature", "properties": { "amenity": "restaurant", "name": "Purely Atlanta", "cuisine": null, "addr:housenumber": "855", "addr:street": "Peachtree Street Northeast", "addr:postcode": "30308", "addr:city": "Atlanta", "website": "https:\/\/purelyconcept.com\/", "addr:state": "GA", "opening_hours": null, "phone": null, "wheelchair": null, "outdoor_seating": null, "takeaway": null, "smoking": null, "delivery": null, "addr:country": null, "addr:unit": "Ste 4", "capacity": null, "internet_access": null }, "geometry": { "type": "Point", "coordinates": [ -84.3841507, 33.7776605 ] } },
{ "type": "Feature", "properties": { "amenity": "restaurant", "name": "Pure Taqueria", "cuisine": "mexican", "addr:housenumber": "308", "addr:street": "North Highland Avenue Northeast", "addr:postcode": "30307", "addr:city": "Atlanta", "website": null, "addr:state": null, "opening_hours": null, "phone": null, "wheelchair": null, "outdoor_seating": null, "takeaway": null, "smoking": null, "delivery": null, "addr:country": null, "addr:unit": null, "capacity": null, "internet_access": null }, "geometry": { "type": "Point", "coordinates": [ -84.3582786, 33.7630055 ] } },
{ "type": "Feature", "properties": { "amenity": "restaurant", "name": "Raja Indian", "cuisine": "indian", "addr:housenumber": "2955", "addr:street": "Peachtree Road", "addr:postcode": "30305", "addr:city": "Atlanta", "website": null, "addr:state": "GA", "opening_hours": null, "phone": null, "wheelchair": null, "outdoor_seating": null, "takeaway": null, "smoking": null, "delivery": null, "addr:country": null, "addr:unit": null, "capacity": null, "internet_access": null }, "geometry": { "type": "Point", "coordinates": [ -84.3817177, 33.8354932 ] } },
{ "type": "Feature", "properties": { "amenity": "restaurant", "name": "Rathbun's Steak", "cuisine": "steak_house", "addr:housenumber": null, "addr:street": null, "addr:postcode": null, "addr:city": null, "website": null, "addr:state": null, "opening_hours": null, "phone": null, "wheelchair": null, "outdoor_seating": null, "takeaway": null, "smoking": null, "delivery": null, "addr:country": null, "addr:unit": null, "capacity": null, "internet_access": null }, "geometry": { "type": "Point", "coordinates": [ -84.3638966, 33.7592068 ] } },
{ "type": "Feature", "properties": { "amenity": "restaurant", "name": "Ray's in the City", "cuisine": "seafood", "addr:housenumber": null, "addr:street": null, "addr:postcode": null, "addr:city": null, "website": null, "addr:state": null, "opening_hours": null, "phone": null, "wheelchair": null, "outdoor_seating": null, "takeaway": null, "smoking": null, "delivery": null, "addr:country": null, "addr:unit": null, "capacity": null, "internet_access": null }, "geometry": { "type": "Point", "coordinates": [ -84.38785, 33.7604039 ] } },
{ "type": "Feature", "properties": { "amenity": "restaurant", "name": "Ray's NY Pizza, Cedar's Mediterranean", "cuisine": "pizza; mediterranean", "addr:housenumber": null, "addr:street": null, "addr:postcode": null, "addr:city": null, "website": null, "addr:state": null, "opening_hours": "Mo-Su 11:00-22:00", "phone": "+1-404-888-9911", "wheelchair": "yes", "outdoor_seating": null, "takeaway": null, "smoking": null, "delivery": null, "addr:country": null, "addr:unit": null, "capacity": null, "internet_access": null }, "geometry": { "type": "Point", "coordinates": [ -84.3881023, 33.7766541 ] } },
{ "type": "Feature", "properties": { "amenity": "restaurant", "name": "Real Chow Baby", "cuisine": "chinese", "addr:housenumber": null, "addr:street": null, "addr:postcode": null, "addr:city": null, "website": null, "addr:state": null, "opening_hours": null, "phone": null, "wheelchair": null, "outdoor_seating": null, "takeaway": null, "smoking": null, "delivery": null, "addr:country": null, "addr:unit": null, "capacity": null, "internet_access": null }, "geometry": { "type": "Point", "coordinates": [ -84.3617849, 33.7740945 ] } },
{ "type": "Feature", "properties": { "amenity": "restaurant", "name": "Real Chow Baby", "cuisine": "chinese", "addr:housenumber": null, "addr:street": null, "addr:postcode": null, "addr:city": null, "website": null, "addr:state": null, "opening_hours": null, "phone": null, "wheelchair": null, "outdoor_seating": null, "takeaway": null, "smoking": null, "delivery": null, "addr:country": null, "addr:unit": null, "capacity": null, "internet_access": null }, "geometry": { "type": "Point", "coordinates": [ -84.4118303, 33.782589 ] } },
{ "type": "Feature", "properties": { "amenity": "restaurant", "name": "Red Pepper Taqueria", "cuisine": null, "addr:housenumber": null, "addr:street": null, "addr:postcode": "30305", "addr:city": null, "website": null, "addr:state": null, "opening_hours": null, "phone": "+1 404-869-2773", "wheelchair": null, "outdoor_seating": null, "takeaway": null, "smoking": null, "delivery": null, "addr:country": null, "addr:unit": null, "capacity": null, "internet_access": null }, "geometry": { "type": "Point", "coordinates": [ -84.3704863, 33.84264 ] } },
{ "type": "Feature", "properties": { "amenity": "restaurant", "name": "Revolution Doughnuts", "cuisine": "doughnut", "addr:housenumber": null, "addr:street": null, "addr:postcode": null, "addr:city": null, "website": null, "addr:state": null, "opening_hours": null, "phone": null, "wheelchair": null, "outdoor_seating": "yes", "takeaway": "yes", "smoking": "no", "delivery": null, "addr:country": null, "addr:unit": null, "capacity": null, "internet_access": null }, "geometry": { "type": "Point", "coordinates": [ -84.363041, 33.7547336 ] } },
{ "type": "Feature", "properties": { "amenity": "restaurant", "name": "Rice Box", "cuisine": "chinese", "addr:housenumber": null, "addr:street": null, "addr:postcode": null, "addr:city": null, "website": null, "addr:state": null, "opening_hours": null, "phone": null, "wheelchair": null, "outdoor_seating": null, "takeaway": null, "smoking": null, "delivery": null, "addr:country": null, "addr:unit": null, "capacity": null, "internet_access": null }, "geometry": { "type": "Point", "coordinates": [ -84.3679602, 33.7803297 ] } },
{ "type": "Feature", "properties": { "amenity": "restaurant", "name": "Rocky Mountain Pizza", "cuisine": "pizza", "addr:housenumber": null, "addr:street": null, "addr:postcode": null, "addr:city": null, "website": null, "addr:state": null, "opening_hours": null, "phone": null, "wheelchair": null, "outdoor_seating": null, "takeaway": null, "smoking": null, "delivery": null, "addr:country": null, "addr:unit": null, "capacity": null, "internet_access": null }, "geometry": { "type": "Point", "coordinates": [ -84.4043525, 33.7821239 ] } },
{ "type": "Feature", "properties": { "amenity": "restaurant", "name": "Rosebud", "cuisine": "american", "addr:housenumber": "1397", "addr:street": null, "addr:postcode": null, "addr:city": null, "website": "rosebudatlanta.com", "addr:state": null, "opening_hours": null, "phone": null, "wheelchair": null, "outdoor_seating": null, "takeaway": null, "smoking": null, "delivery": null, "addr:country": null, "addr:unit": null, "capacity": null, "internet_access": null }, "geometry": { "type": "Point", "coordinates": [ -84.3521256, 33.792468 ] } },
{ "type": "Feature", "properties": { "amenity": "restaurant", "name": "R. Thomas", "cuisine": null, "addr:housenumber": "1812", "addr:street": null, "addr:postcode": null, "addr:city": null, "website": "https:\/\/www.rthomasdeluxegrill.net\/", "addr:state": null, "opening_hours": null, "phone": null, "wheelchair": null, "outdoor_seating": null, "takeaway": null, "smoking": null, "delivery": null, "addr:country": null, "addr:unit": null, "capacity": null, "internet_access": null }, "geometry": { "type": "Point", "coordinates": [ -84.3936559, 33.8042852 ] } },
{ "type": "Feature", "properties": { "amenity": "restaurant", "name": "Ru San's", "cuisine": null, "addr:housenumber": null, "addr:street": null, "addr:postcode": null, "addr:city": null, "website": "http:\/\/rusans.com", "addr:state": null, "opening_hours": null, "phone": null, "wheelchair": null, "outdoor_seating": null, "takeaway": null, "smoking": null, "delivery": null, "addr:country": null, "addr:unit": null, "capacity": null, "internet_access": null }, "geometry": { "type": "Point", "coordinates": [ -84.3488915, 33.7588305 ] } },
{ "type": "Feature", "properties": { "amenity": "restaurant", "name": "Ruth's Chris", "cuisine": "steak_house", "addr:housenumber": null, "addr:street": null, "addr:postcode": null, "addr:city": null, "website": "http:\/\/www.ruthschris.com\/Steak-House\/20929\/Atlanta\/Centennial-Park", "addr:state": null, "opening_hours": null, "phone": null, "wheelchair": "yes", "outdoor_seating": null, "takeaway": null, "smoking": null, "delivery": null, "addr:country": null, "addr:unit": null, "capacity": null, "internet_access": null }, "geometry": { "type": "Point", "coordinates": [ -84.3942593, 33.7607688 ] } },
{ "type": "Feature", "properties": { "amenity": "restaurant", "name": "Satto Thai and Sushi Bar", "cuisine": "asian;thai", "addr:housenumber": null, "addr:street": null, "addr:postcode": null, "addr:city": null, "website": "http:\/\/ordersattothaiandsushibar.com\/", "addr:state": null, "opening_hours": "Mo-Fr 10:30-21:45; Sa-Su 17:00-21:50", "phone": "(404) 681-1133", "wheelchair": null, "outdoor_seating": null, "takeaway": "yes", "smoking": null, "delivery": null, "addr:country": null, "addr:unit": null, "capacity": null, "internet_access": null }, "geometry": { "type": "Point", "coordinates": [ -84.4038448, 33.7731848 ] } },
{ "type": "Feature", "properties": { "amenity": "restaurant", "name": "Savage Pizza", "cuisine": "pizza", "addr:housenumber": null, "addr:street": null, "addr:postcode": null, "addr:city": null, "website": "http:\/\/savagepizza.com", "addr:state": null, "opening_hours": null, "phone": null, "wheelchair": null, "outdoor_seating": null, "takeaway": null, "smoking": null, "delivery": null, "addr:country": null, "addr:unit": null, "capacity": null, "internet_access": null }, "geometry": { "type": "Point", "coordinates": [ -84.3493661, 33.7672436 ] } },
{ "type": "Feature", "properties": { "amenity": "restaurant", "name": "Sean's Harvest Market", "cuisine": null, "addr:housenumber": null, "addr:street": null, "addr:postcode": null, "addr:city": null, "website": null, "addr:state": null, "opening_hours": "Mo-Fr 07:00-17:00, Sa 09:00-16:00", "phone": null, "wheelchair": null, "outdoor_seating": null, "takeaway": null, "smoking": null, "delivery": null, "addr:country": null, "addr:unit": null, "capacity": null, "internet_access": null }, "geometry": { "type": "Point", "coordinates": [ -84.388117, 33.7971809 ] } },
{ "type": "Feature", "properties": { "amenity": "restaurant", "name": "Sear", "cuisine": null, "addr:housenumber": null, "addr:street": null, "addr:postcode": null, "addr:city": null, "website": null, "addr:state": null, "opening_hours": null, "phone": null, "wheelchair": null, "outdoor_seating": null, "takeaway": null, "smoking": null, "delivery": null, "addr:country": null, "addr:unit": null, "capacity": null, "internet_access": null }, "geometry": { "type": "Point", "coordinates": [ -84.384821, 33.76133 ] } },
{ "type": "Feature", "properties": { "amenity": "restaurant", "name": "Seasons American Bar and Grille", "cuisine": null, "addr:housenumber": null, "addr:street": null, "addr:postcode": null, "addr:city": null, "website": null, "addr:state": null, "opening_hours": null, "phone": null, "wheelchair": null, "outdoor_seating": null, "takeaway": null, "smoking": null, "delivery": null, "addr:country": null, "addr:unit": null, "capacity": null, "internet_access": null }, "geometry": { "type": "Point", "coordinates": [ -84.3908155, 33.7599513 ] } },
{ "type": "Feature", "properties": { "amenity": "restaurant", "name": "Senor Patron - Midtown", "cuisine": "mexican", "addr:housenumber": "860", "addr:street": "Peachtree Street Northeast", "addr:postcode": "30308", "addr:city": "Atlanta", "website": null, "addr:state": "GA", "opening_hours": null, "phone": null, "wheelchair": null, "outdoor_seating": "yes", "takeaway": null, "smoking": null, "delivery": null, "addr:country": null, "addr:unit": null, "capacity": null, "internet_access": null }, "geometry": { "type": "Point", "coordinates": [ -84.3851529, 33.7783951 ] } },
{ "type": "Feature", "properties": { "amenity": "restaurant", "name": "Serpas", "cuisine": "american", "addr:housenumber": null, "addr:street": null, "addr:postcode": null, "addr:city": null, "website": null, "addr:state": null, "opening_hours": null, "phone": null, "wheelchair": null, "outdoor_seating": null, "takeaway": null, "smoking": null, "delivery": null, "addr:country": null, "addr:unit": null, "capacity": null, "internet_access": null }, "geometry": { "type": "Point", "coordinates": [ -84.367366, 33.7574066 ] } },
{ "type": "Feature", "properties": { "amenity": "restaurant", "name": "Shake Shack", "cuisine": "burger", "addr:housenumber": "3035", "addr:street": "Peachtree Road", "addr:postcode": "30305", "addr:city": "Atlanta", "website": null, "addr:state": "GA", "opening_hours": null, "phone": null, "wheelchair": null, "outdoor_seating": null, "takeaway": null, "smoking": null, "delivery": null, "addr:country": null, "addr:unit": null, "capacity": null, "internet_access": null }, "geometry": { "type": "Point", "coordinates": [ -84.3809139, 33.8376624 ] } },
{ "type": "Feature", "properties": { "amenity": "restaurant", "name": "Silver Skillet", "cuisine": "american", "addr:housenumber": null, "addr:street": null, "addr:postcode": null, "addr:city": null, "website": null, "addr:state": null, "opening_hours": null, "phone": null, "wheelchair": null, "outdoor_seating": null, "takeaway": null, "smoking": null, "delivery": null, "addr:country": null, "addr:unit": null, "capacity": null, "internet_access": null }, "geometry": { "type": "Point", "coordinates": [ -84.3942995, 33.7861987 ] } },
{ "type": "Feature", "properties": { "amenity": "restaurant", "name": "Simon's Restaurant", "cuisine": "burger;sandwich", "addr:housenumber": "793", "addr:street": "Juniper Street Northeast", "addr:postcode": "30308", "addr:city": "Atlanta", "website": null, "addr:state": "GA", "opening_hours": null, "phone": null, "wheelchair": null, "outdoor_seating": null, "takeaway": null, "smoking": null, "delivery": null, "addr:country": null, "addr:unit": null, "capacity": null, "internet_access": null }, "geometry": { "type": "Point", "coordinates": [ -84.3826208, 33.776135 ] } },
{ "type": "Feature", "properties": { "amenity": "restaurant", "name": "Sivas Hookah Lougne", "cuisine": "american", "addr:housenumber": "794", "addr:street": "Juniper Street Northeast", "addr:postcode": "30308", "addr:city": "Atlanta", "website": null, "addr:state": "GA", "opening_hours": null, "phone": null, "wheelchair": null, "outdoor_seating": null, "takeaway": null, "smoking": null, "delivery": null, "addr:country": null, "addr:unit": null, "capacity": null, "internet_access": null }, "geometry": { "type": "Point", "coordinates": [ -84.383173, 33.7762215 ] } },
{ "type": "Feature", "properties": { "amenity": "restaurant", "name": "Slice", "cuisine": "pizza", "addr:housenumber": "85", "addr:street": "Poplar Street Northwest", "addr:postcode": "30303", "addr:city": "Atlanta", "website": null, "addr:state": "GA", "opening_hours": null, "phone": null, "wheelchair": null, "outdoor_seating": null, "takeaway": null, "smoking": null, "delivery": null, "addr:country": "US", "addr:unit": null, "capacity": null, "internet_access": null }, "geometry": { "type": "Point", "coordinates": [ -84.3900467, 33.7569132 ] } },
{ "type": "Feature", "properties": { "amenity": "restaurant", "name": "Smoothie King", "cuisine": null, "addr:housenumber": null, "addr:street": null, "addr:postcode": null, "addr:city": null, "website": null, "addr:state": null, "opening_hours": "Mo-Fr 07:00-21:00;Sa 08:00-21:00;Su 10:00-20:00", "phone": null, "wheelchair": null, "outdoor_seating": null, "takeaway": null, "smoking": null, "delivery": null, "addr:country": null, "addr:unit": null, "capacity": null, "internet_access": null }, "geometry": { "type": "Point", "coordinates": [ -84.4078128, 33.7821807 ] } },
{ "type": "Feature", "properties": { "amenity": "restaurant", "name": "So Ba Vietnamese Restaurant", "cuisine": "vietnamese", "addr:housenumber": "560", "addr:street": "am Avenue Southeast", "addr:postcode": "30316", "addr:city": "Atlanta", "website": null, "addr:state": null, "opening_hours": null, "phone": null, "wheelchair": null, "outdoor_seating": null, "takeaway": null, "smoking": null, "delivery": null, "addr:country": null, "addr:unit": null, "capacity": null, "internet_access": null }, "geometry": { "type": "Point", "coordinates": [ -84.3456597, 33.7394468 ] } },
{ "type": "Feature", "properties": { "amenity": "restaurant", "name": "Sophie's Uptown", "cuisine": "deli", "addr:housenumber": "54", "addr:street": "Pharr Road Northwest", "addr:postcode": "30305", "addr:city": "Atlanta", "website": null, "addr:state": null, "opening_hours": null, "phone": null, "wheelchair": null, "outdoor_seating": null, "takeaway": null, "smoking": null, "delivery": null, "addr:country": null, "addr:unit": null, "capacity": null, "internet_access": null }, "geometry": { "type": "Point", "coordinates": [ -84.3834689, 33.8369398 ] } },
{ "type": "Feature", "properties": { "amenity": "restaurant", "name": "Spanish Harlem", "cuisine": null, "addr:housenumber": null, "addr:street": null, "addr:postcode": null, "addr:city": null, "website": null, "addr:state": null, "opening_hours": null, "phone": null, "wheelchair": null, "outdoor_seating": null, "takeaway": null, "smoking": null, "delivery": null, "addr:country": null, "addr:unit": null, "capacity": null, "internet_access": null }, "geometry": { "type": "Point", "coordinates": [ -84.3791899, 33.7545522 ] } },
{ "type": "Feature", "properties": { "amenity": "restaurant", "name": "Spoon EastSide", "cuisine": null, "addr:housenumber": "749", "addr:street": "Moreland Avenue Southeast", "addr:postcode": "30316", "addr:city": "Atlanta", "website": null, "addr:state": "GA", "opening_hours": null, "phone": null, "wheelchair": null, "outdoor_seating": null, "takeaway": null, "smoking": null, "delivery": null, "addr:country": null, "addr:unit": null, "capacity": null, "internet_access": null }, "geometry": { "type": "Point", "coordinates": [ -84.3498675, 33.7336833 ] } },
{ "type": "Feature", "properties": { "amenity": "restaurant", "name": "Stats", "cuisine": "american", "addr:housenumber": null, "addr:street": null, "addr:postcode": null, "addr:city": null, "website": null, "addr:state": null, "opening_hours": null, "phone": null, "wheelchair": null, "outdoor_seating": null, "takeaway": null, "smoking": null, "delivery": null, "addr:country": null, "addr:unit": null, "capacity": null, "internet_access": null }, "geometry": { "type": "Point", "coordinates": [ -84.3962607, 33.7612848 ] } },
{ "type": "Feature", "properties": { "amenity": "restaurant", "name": "Sublime Dougnuts", "cuisine": "doughnut", "addr:housenumber": "535", "addr:street": "10th Street Northwest", "addr:postcode": "30318", "addr:city": "Atlanta", "website": null, "addr:state": "GA", "opening_hours": "24\/7", "phone": null, "wheelchair": null, "outdoor_seating": null, "takeaway": null, "smoking": null, "delivery": null, "addr:country": null, "addr:unit": null, "capacity": null, "internet_access": null }, "geometry": { "type": "Point", "coordinates": [ -84.4050344, 33.7818564 ] } },
{ "type": "Feature", "properties": { "amenity": "restaurant", "name": "Subway", "cuisine": "sandwich", "addr:housenumber": null, "addr:street": null, "addr:postcode": null, "addr:city": null, "website": null, "addr:state": null, "opening_hours": null, "phone": null, "wheelchair": null, "outdoor_seating": null, "takeaway": null, "smoking": null, "delivery": null, "addr:country": null, "addr:unit": null, "capacity": null, "internet_access": null }, "geometry": { "type": "Point", "coordinates": [ -84.3898251, 33.7771046 ] } },
{ "type": "Feature", "properties": { "amenity": "restaurant", "name": "Subway", "cuisine": "Sandwich_deli", "addr:housenumber": null, "addr:street": null, "addr:postcode": null, "addr:city": null, "website": null, "addr:state": null, "opening_hours": null, "phone": null, "wheelchair": null, "outdoor_seating": null, "takeaway": null, "smoking": null, "delivery": null, "addr:country": null, "addr:unit": null, "capacity": null, "internet_access": null }, "geometry": { "type": "Point", "coordinates": [ -84.3228647, 33.7509837 ] } },
{ "type": "Feature", "properties": { "amenity": "restaurant", "name": "Sun Dial", "cuisine": null, "addr:housenumber": null, "addr:street": null, "addr:postcode": null, "addr:city": null, "website": null, "addr:state": null, "opening_hours": null, "phone": null, "wheelchair": null, "outdoor_seating": null, "takeaway": null, "smoking": null, "delivery": null, "addr:country": null, "addr:unit": null, "capacity": null, "internet_access": null }, "geometry": { "type": "Point", "coordinates": [ -84.38845, 33.7593569 ] } },
{ "type": "Feature", "properties": { "amenity": "restaurant", "name": "Superica", "cuisine": "mexican", "addr:housenumber": null, "addr:street": null, "addr:postcode": null, "addr:city": null, "website": null, "addr:state": null, "opening_hours": null, "phone": null, "wheelchair": null, "outdoor_seating": null, "takeaway": null, "smoking": null, "delivery": null, "addr:country": null, "addr:unit": null, "capacity": null, "internet_access": null }, "geometry": { "type": "Point", "coordinates": [ -84.3641809, 33.7571021 ] } },
{ "type": "Feature", "properties": { "amenity": "restaurant", "name": "Superica", "cuisine": null, "addr:housenumber": "3850", "addr:street": "Roswell Road", "addr:postcode": "30342", "addr:city": null, "website": null, "addr:state": null, "opening_hours": null, "phone": null, "wheelchair": null, "outdoor_seating": null, "takeaway": null, "smoking": null, "delivery": null, "addr:country": null, "addr:unit": null, "capacity": null, "internet_access": null }, "geometry": { "type": "Point", "coordinates": [ -84.3810786, 33.8599153 ] } },
{ "type": "Feature", "properties": { "amenity": "restaurant", "name": "Surin", "cuisine": "thai", "addr:housenumber": null, "addr:street": null, "addr:postcode": null, "addr:city": null, "website": null, "addr:state": null, "opening_hours": null, "phone": null, "wheelchair": null, "outdoor_seating": null, "takeaway": null, "smoking": null, "delivery": null, "addr:country": null, "addr:unit": null, "capacity": null, "internet_access": null }, "geometry": { "type": "Point", "coordinates": [ -84.3526922, 33.77655 ] } },
{ "type": "Feature", "properties": { "amenity": "restaurant", "name": "Sweet Lime", "cuisine": "Thai and sushi", "addr:housenumber": null, "addr:street": null, "addr:postcode": null, "addr:city": null, "website": null, "addr:state": null, "opening_hours": null, "phone": null, "wheelchair": null, "outdoor_seating": null, "takeaway": null, "smoking": null, "delivery": null, "addr:country": null, "addr:unit": null, "capacity": null, "internet_access": null }, "geometry": { "type": "Point", "coordinates": [ -84.3505078, 33.7645862 ] } },
{ "type": "Feature", "properties": { "amenity": "restaurant", "name": "Taco Mac", "cuisine": "bar&grill", "addr:housenumber": "1006", "addr:street": "North Highland Avenue", "addr:postcode": null, "addr:city": null, "website": null, "addr:state": null, "opening_hours": "Mo-Th 11:00-25:30; Fr-Sa 11:00-27:00; Su 11:00-24:00", "phone": "+1-404-873-6529", "wheelchair": null, "outdoor_seating": null, "takeaway": null, "smoking": null, "delivery": null, "addr:country": null, "addr:unit": null, "capacity": null, "internet_access": null }, "geometry": { "type": "Point", "coordinates": [ -84.3545563, 33.7819998 ] } },
{ "type": "Feature", "properties": { "amenity": "restaurant", "name": "Taco Mac", "cuisine": "bar&grill", "addr:housenumber": "573", "addr:street": "Main Street", "addr:postcode": null, "addr:city": null, "website": null, "addr:state": null, "opening_hours": "Mo-Sa 11:00-26:30; Su 11:00-24:00", "phone": "+1-404-574-5813", "wheelchair": null, "outdoor_seating": null, "takeaway": null, "smoking": null, "delivery": null, "addr:country": null, "addr:unit": null, "capacity": null, "internet_access": null }, "geometry": { "type": "Point", "coordinates": [ -84.3683336, 33.8222957 ] } },
{ "type": "Feature", "properties": { "amenity": "restaurant", "name": "Taco Mac", "cuisine": "bar&grill", "addr:housenumber": "933", "addr:street": null, "addr:postcode": null, "addr:city": null, "website": null, "addr:state": null, "opening_hours": "Mo-Sa 11:00-26:30; Su 11:00-24:00", "phone": "+1-678-904-7211", "wheelchair": "yes", "outdoor_seating": null, "takeaway": null, "smoking": null, "delivery": null, "addr:country": null, "addr:unit": null, "capacity": null, "internet_access": null }, "geometry": { "type": "Point", "coordinates": [ -84.3838932, 33.7805263 ] } },
{ "type": "Feature", "properties": { "amenity": "restaurant", "name": "Tap", "cuisine": "american", "addr:housenumber": null, "addr:street": null, "addr:postcode": null, "addr:city": null, "website": null, "addr:state": null, "opening_hours": null, "phone": null, "wheelchair": null, "outdoor_seating": null, "takeaway": null, "smoking": null, "delivery": null, "addr:country": null, "addr:unit": null, "capacity": null, "internet_access": null }, "geometry": { "type": "Point", "coordinates": [ -84.383533, 33.786884 ] } },
{ "type": "Feature", "properties": { "amenity": "restaurant", "name": "Tech Taco", "cuisine": null, "addr:housenumber": null, "addr:street": null, "addr:postcode": "30318", "addr:city": "Atlanta", "website": null, "addr:state": "GA", "opening_hours": null, "phone": null, "wheelchair": null, "outdoor_seating": null, "takeaway": null, "smoking": null, "delivery": null, "addr:country": null, "addr:unit": null, "capacity": null, "internet_access": null }, "geometry": { "type": "Point", "coordinates": [ -84.404636, 33.7818628 ] } },
{ "type": "Feature", "properties": { "amenity": "restaurant", "name": "Ted's Montana Grill", "cuisine": null, "addr:housenumber": null, "addr:street": null, "addr:postcode": null, "addr:city": null, "website": null, "addr:state": null, "opening_hours": null, "phone": null, "wheelchair": null, "outdoor_seating": null, "takeaway": null, "smoking": null, "delivery": null, "addr:country": null, "addr:unit": null, "capacity": null, "internet_access": null }, "geometry": { "type": "Point", "coordinates": [ -84.390646, 33.7585609 ] } },
{ "type": "Feature", "properties": { "amenity": "restaurant", "name": "The Albert", "cuisine": "american", "addr:housenumber": "918", "addr:street": "Austin Avenue NE", "addr:postcode": "30307", "addr:city": null, "website": "https:\/\/www.thealbertatlanta.com\/", "addr:state": null, "opening_hours": null, "phone": null, "wheelchair": null, "outdoor_seating": null, "takeaway": null, "smoking": null, "delivery": null, "addr:country": null, "addr:unit": null, "capacity": null, "internet_access": null }, "geometry": { "type": "Point", "coordinates": [ -84.357579, 33.761978 ] } },
{ "type": "Feature", "properties": { "amenity": "restaurant", "name": "The Canteen", "cuisine": null, "addr:housenumber": "75", "addr:street": "5th Street Northwest", "addr:postcode": "30308", "addr:city": "Atlanta", "website": null, "addr:state": null, "opening_hours": "Tu-Th 07:00-21:00, Fr 07:00-22:00, Sa 09:00-22:00, Su,Mo 09:00-15:00", "phone": "+1 404 892 9111", "wheelchair": null, "outdoor_seating": null, "takeaway": null, "smoking": null, "delivery": null, "addr:country": null, "addr:unit": null, "capacity": null, "internet_access": null }, "geometry": { "type": "Point", "coordinates": [ -84.389256, 33.7770241 ] } },
{ "type": "Feature", "properties": { "amenity": "restaurant", "name": "The Cheesecake Factory", "cuisine": "american", "addr:housenumber": "3393", "addr:street": "Peachtree Road Northeast", "addr:postcode": "30326", "addr:city": "Atlanta", "website": "http:\/\/locations.thecheesecakefactory.com\/ga\/atlanta-176.html", "addr:state": "GA", "opening_hours": "Mo-Th 11:00-23:00; Fr-Sa: 11:00-00:30, Su 10:00-23:00", "phone": "+1-404-816-2555", "wheelchair": null, "outdoor_seating": "patio", "takeaway": "yes", "smoking": null, "delivery": null, "addr:country": null, "addr:unit": null, "capacity": null, "internet_access": null }, "geometry": { "type": "Point", "coordinates": [ -84.362789, 33.848239 ] } },
{ "type": "Feature", "properties": { "amenity": "restaurant", "name": "The Cookie Studio", "cuisine": "bakery", "addr:housenumber": "30", "addr:street": "Pharr Road Northwest", "addr:postcode": "30305", "addr:city": "Atlanta", "website": null, "addr:state": null, "opening_hours": null, "phone": null, "wheelchair": null, "outdoor_seating": null, "takeaway": null, "smoking": null, "delivery": null, "addr:country": null, "addr:unit": null, "capacity": null, "internet_access": null }, "geometry": { "type": "Point", "coordinates": [ -84.3829365, 33.836965 ] } },
{ "type": "Feature", "properties": { "amenity": "restaurant", "name": "The Flying Biscuit Cafe", "cuisine": null, "addr:housenumber": null, "addr:street": null, "addr:postcode": null, "addr:city": null, "website": null, "addr:state": null, "opening_hours": "Mo-Fr 06:30-16:00; Sa-Su 08:00-16:00", "phone": null, "wheelchair": null, "outdoor_seating": null, "takeaway": null, "smoking": null, "delivery": null, "addr:country": null, "addr:unit": null, "capacity": null, "internet_access": null }, "geometry": { "type": "Point", "coordinates": [ -84.4291538, 33.8506368 ] } },
{ "type": "Feature", "properties": { "amenity": "restaurant", "name": "The Greater Good BBQ", "cuisine": null, "addr:housenumber": null, "addr:street": null, "addr:postcode": null, "addr:city": null, "website": null, "addr:state": null, "opening_hours": null, "phone": null, "wheelchair": null, "outdoor_seating": "yes", "takeaway": null, "smoking": null, "delivery": null, "addr:country": null, "addr:unit": null, "capacity": null, "internet_access": null }, "geometry": { "type": "Point", "coordinates": [ -84.3099064, 33.7512325 ] } },
{ "type": "Feature", "properties": { "amenity": "restaurant", "name": "The Lawrence", "cuisine": null, "addr:housenumber": null, "addr:street": null, "addr:postcode": null, "addr:city": null, "website": null, "addr:state": null, "opening_hours": null, "phone": null, "wheelchair": null, "outdoor_seating": null, "takeaway": null, "smoking": null, "delivery": null, "addr:country": null, "addr:unit": null, "capacity": null, "internet_access": null }, "geometry": { "type": "Point", "coordinates": [ -84.3824947, 33.7794058 ] } },
{ "type": "Feature", "properties": { "amenity": "restaurant", "name": "The Majestic Diner", "cuisine": "american", "addr:housenumber": null, "addr:street": null, "addr:postcode": null, "addr:city": null, "website": null, "addr:state": null, "opening_hours": null, "phone": "+1-404-875-0276", "wheelchair": null, "outdoor_seating": null, "takeaway": null, "smoking": null, "delivery": null, "addr:country": null, "addr:unit": null, "capacity": null, "internet_access": null }, "geometry": { "type": "Point", "coordinates": [ -84.3537164, 33.7736379 ] } },
{ "type": "Feature", "properties": { "amenity": "restaurant", "name": "The Optimist", "cuisine": "seafood", "addr:housenumber": "914", "addr:street": "Howell Mill Road", "addr:postcode": "30318", "addr:city": "Atlanta", "website": "http:\/\/theoptimistrestaurant.com", "addr:state": null, "opening_hours": "17:00-23:00", "phone": null, "wheelchair": null, "outdoor_seating": null, "takeaway": null, "smoking": "no", "delivery": null, "addr:country": null, "addr:unit": null, "capacity": "100+", "internet_access": null }, "geometry": { "type": "Point", "coordinates": [ -84.4106489, 33.7798543 ] } },
{ "type": "Feature", "properties": { "amenity": "restaurant", "name": "The Original El Taco", "cuisine": "mexican", "addr:housenumber": null, "addr:street": null, "addr:postcode": null, "addr:city": null, "website": null, "addr:state": null, "opening_hours": null, "phone": null, "wheelchair": null, "outdoor_seating": null, "takeaway": null, "smoking": null, "delivery": null, "addr:country": null, "addr:unit": null, "capacity": null, "internet_access": null }, "geometry": { "type": "Point", "coordinates": [ -84.3554562, 33.7868731 ] } },
{ "type": "Feature", "properties": { "amenity": "restaurant", "name": "The Pig & The Pearl", "cuisine": "american", "addr:housenumber": null, "addr:street": null, "addr:postcode": null, "addr:city": null, "website": "https:\/\/www.thepigandthepearl.com\/", "addr:state": null, "opening_hours": null, "phone": null, "wheelchair": null, "outdoor_seating": null, "takeaway": null, "smoking": null, "delivery": null, "addr:country": null, "addr:unit": null, "capacity": null, "internet_access": null }, "geometry": { "type": "Point", "coordinates": [ -84.3977011, 33.7933807 ] } },
{ "type": "Feature", "properties": { "amenity": "restaurant", "name": "The Porch at Collier", "cuisine": "italian", "addr:housenumber": "1201", "addr:street": "Collier Road Northwest", "addr:postcode": "30318", "addr:city": "Atlanta", "website": "http:\/\/theporchatcollier.com\/", "addr:state": "GA", "opening_hours": null, "phone": "+1 404 351 7409", "wheelchair": null, "outdoor_seating": null, "takeaway": null, "smoking": null, "delivery": null, "addr:country": null, "addr:unit": null, "capacity": null, "internet_access": null }, "geometry": { "type": "Point", "coordinates": [ -84.425045, 33.8116286 ] } },
{ "type": "Feature", "properties": { "amenity": "restaurant", "name": "The Pullman", "cuisine": null, "addr:housenumber": null, "addr:street": null, "addr:postcode": null, "addr:city": null, "website": null, "addr:state": null, "opening_hours": null, "phone": null, "wheelchair": null, "outdoor_seating": null, "takeaway": null, "smoking": null, "delivery": null, "addr:country": null, "addr:unit": null, "capacity": null, "internet_access": null }, "geometry": { "type": "Point", "coordinates": [ -84.3224426, 33.7513898 ] } },
{ "type": "Feature", "properties": { "amenity": "restaurant", "name": "The Shed at Glenwood", "cuisine": "american", "addr:housenumber": "475", "addr:street": "Bill Kennedy Way", "addr:postcode": "30315", "addr:city": null, "website": "http:\/\/www.theshedatglenwood.com", "addr:state": null, "opening_hours": null, "phone": null, "wheelchair": null, "outdoor_seating": null, "takeaway": null, "smoking": null, "delivery": null, "addr:country": null, "addr:unit": null, "capacity": null, "internet_access": null }, "geometry": { "type": "Point", "coordinates": [ -84.3583541, 33.7403577 ] } },
{ "type": "Feature", "properties": { "amenity": "restaurant", "name": "The Southern Gentleman", "cuisine": null, "addr:housenumber": null, "addr:street": null, "addr:postcode": null, "addr:city": null, "website": null, "addr:state": null, "opening_hours": null, "phone": null, "wheelchair": null, "outdoor_seating": null, "takeaway": null, "smoking": null, "delivery": null, "addr:country": null, "addr:unit": null, "capacity": null, "internet_access": null }, "geometry": { "type": "Point", "coordinates": [ -84.3807137, 33.8378962 ] } },
{ "type": "Feature", "properties": { "amenity": "restaurant", "name": "The Vortex Bar & Grill", "cuisine": "burger; bar&grill", "addr:housenumber": "878", "addr:street": null, "addr:postcode": null, "addr:city": null, "website": null, "addr:state": null, "opening_hours": "Mo-We 11:00-26:00; Th-Sa 11:00-27:00; Su 11:00-24:00", "phone": "+1-404-875-1667", "wheelchair": "yes", "outdoor_seating": null, "takeaway": null, "smoking": null, "delivery": null, "addr:country": null, "addr:unit": null, "capacity": null, "internet_access": null }, "geometry": { "type": "Point", "coordinates": [ -84.3844582, 33.7790324 ] } },
{ "type": "Feature", "properties": { "amenity": "restaurant", "name": "The Vortex Bar & Grill", "cuisine": "burger;bar&grill", "addr:housenumber": "438", "addr:street": "Moreland Avenue", "addr:postcode": null, "addr:city": null, "website": "http:\/\/www.thevortexbarandgrill.com", "addr:state": null, "opening_hours": "Su-Th 11:00-12:00; Fr-Sa 11:00-02:00", "phone": "404-688-1828", "wheelchair": null, "outdoor_seating": null, "takeaway": null, "smoking": null, "delivery": null, "addr:country": null, "addr:unit": null, "capacity": null, "internet_access": null }, "geometry": { "type": "Point", "coordinates": [ -84.349211, 33.7662554 ] } },
{ "type": "Feature", "properties": { "amenity": "restaurant", "name": "Thrive", "cuisine": "japanese", "addr:housenumber": "101", "addr:street": "Marietta Street", "addr:postcode": "30303", "addr:city": "Atlanta", "website": null, "addr:state": null, "opening_hours": null, "phone": null, "wheelchair": null, "outdoor_seating": null, "takeaway": null, "smoking": null, "delivery": null, "addr:country": "US", "addr:unit": null, "capacity": null, "internet_access": null }, "geometry": { "type": "Point", "coordinates": [ -84.3923429, 33.7569676 ] } },
{ "type": "Feature", "properties": { "amenity": "restaurant", "name": "Tin Drum", "cuisine": "asian", "addr:housenumber": null, "addr:street": null, "addr:postcode": null, "addr:city": null, "website": null, "addr:state": null, "opening_hours": "Mo-Su 11:00-21:00", "phone": null, "wheelchair": "yes", "outdoor_seating": null, "takeaway": null, "smoking": null, "delivery": null, "addr:country": null, "addr:unit": null, "capacity": null, "internet_access": null }, "geometry": { "type": "Point", "coordinates": [ -84.3900493, 33.7766984 ] } },
{ "type": "Feature", "properties": { "amenity": "restaurant", "name": "Top Flr", "cuisine": "american", "addr:housenumber": "674", "addr:street": "Myrtle Street Northeast", "addr:postcode": "30308", "addr:city": "Atlanta", "website": null, "addr:state": "GA", "opening_hours": "Tu-Th 17:30-01:00, Fr,Sa 17:30-02:00, Su,Mo off", "phone": null, "wheelchair": "yes", "outdoor_seating": null, "takeaway": null, "smoking": null, "delivery": null, "addr:country": null, "addr:unit": null, "capacity": null, "internet_access": null }, "geometry": { "type": "Point", "coordinates": [ -84.3803812, 33.772956 ] } },
{ "type": "Feature", "properties": { "amenity": "restaurant", "name": "Torched Hop Brewing Company", "cuisine": null, "addr:housenumber": null, "addr:street": null, "addr:postcode": null, "addr:city": null, "website": null, "addr:state": null, "opening_hours": null, "phone": null, "wheelchair": null, "outdoor_seating": null, "takeaway": null, "smoking": null, "delivery": null, "addr:country": null, "addr:unit": null, "capacity": null, "internet_access": null }, "geometry": { "type": "Point", "coordinates": [ -84.3793041, 33.7722488 ] } },
{ "type": "Feature", "properties": { "amenity": "restaurant", "name": "Treehouse Restaurant and Pub", "cuisine": "american", "addr:housenumber": "7", "addr:street": "Kings Circle Northeast", "addr:postcode": null, "addr:city": null, "website": "http:\/\/www.treehouseatlanta.com\/", "addr:state": null, "opening_hours": null, "phone": null, "wheelchair": null, "outdoor_seating": null, "takeaway": null, "smoking": null, "delivery": null, "addr:country": null, "addr:unit": null, "capacity": null, "internet_access": null }, "geometry": { "type": "Point", "coordinates": [ -84.3811874, 33.8187767 ] } },
{ "type": "Feature", "properties": { "amenity": "restaurant", "name": "Truva", "cuisine": "tapas", "addr:housenumber": "60", "addr:street": "International Boulevard Northeast", "addr:postcode": null, "addr:city": null, "website": null, "addr:state": null, "opening_hours": null, "phone": "+1 404-577-8788", "wheelchair": null, "outdoor_seating": null, "takeaway": null, "smoking": null, "delivery": null, "addr:country": null, "addr:unit": null, "capacity": null, "internet_access": null }, "geometry": { "type": "Point", "coordinates": [ -84.385803, 33.759758 ] } },
{ "type": "Feature", "properties": { "amenity": "restaurant", "name": "Twin Peaks Buckhead", "cuisine": null, "addr:housenumber": "3365", "addr:street": "Piedmont Road Northeast", "addr:postcode": "30305", "addr:city": null, "website": "http:\/\/twinpeaksrestaurant.com", "addr:state": null, "opening_hours": null, "phone": "+1 404-961-8946", "wheelchair": null, "outdoor_seating": null, "takeaway": null, "smoking": null, "delivery": null, "addr:country": null, "addr:unit": null, "capacity": null, "internet_access": null }, "geometry": { "type": "Point", "coordinates": [ -84.3728849, 33.8474054 ] } },
{ "type": "Feature", "properties": { "amenity": "restaurant", "name": "Twisted Soul Cookhouse & Pours", "cuisine": "southern;brunch", "addr:housenumber": "1133", "addr:street": "Huff Road Northwest", "addr:postcode": "30318", "addr:city": "Atlanta", "website": null, "addr:state": "Ga", "opening_hours": null, "phone": null, "wheelchair": null, "outdoor_seating": "yes", "takeaway": "yes", "smoking": null, "delivery": null, "addr:country": null, "addr:unit": null, "capacity": null, "internet_access": null }, "geometry": { "type": "Point", "coordinates": [ -84.4252648, 33.7892146 ] } },
{ "type": "Feature", "properties": { "amenity": "restaurant", "name": "Two Urban Licks", "cuisine": "american", "addr:housenumber": null, "addr:street": null, "addr:postcode": null, "addr:city": null, "website": null, "addr:state": null, "opening_hours": null, "phone": null, "wheelchair": null, "outdoor_seating": null, "takeaway": null, "smoking": null, "delivery": null, "addr:country": null, "addr:unit": null, "capacity": null, "internet_access": null }, "geometry": { "type": "Point", "coordinates": [ -84.3612992, 33.7684989 ] } },
{ "type": "Feature", "properties": { "amenity": "restaurant", "name": "Uncle Julio's", "cuisine": null, "addr:housenumber": "1860", "addr:street": "Peachtree Rd.", "addr:postcode": "30309", "addr:city": "Atlanta", "website": null, "addr:state": null, "opening_hours": null, "phone": null, "wheelchair": "yes", "outdoor_seating": null, "takeaway": null, "smoking": null, "delivery": null, "addr:country": null, "addr:unit": null, "capacity": null, "internet_access": null }, "geometry": { "type": "Point", "coordinates": [ -84.3941692, 33.8053118 ] } },
{ "type": "Feature", "properties": { "amenity": "restaurant", "name": "Urban Pie", "cuisine": "pizza", "addr:housenumber": null, "addr:street": null, "addr:postcode": null, "addr:city": null, "website": null, "addr:state": null, "opening_hours": null, "phone": null, "wheelchair": null, "outdoor_seating": null, "takeaway": null, "smoking": "no", "delivery": null, "addr:country": null, "addr:unit": null, "capacity": null, "internet_access": null }, "geometry": { "type": "Point", "coordinates": [ -84.3218669, 33.7513294 ] } },
{ "type": "Feature", "properties": { "amenity": "restaurant", "name": "Urban PL8", "cuisine": "regional", "addr:housenumber": null, "addr:street": null, "addr:postcode": null, "addr:city": null, "website": null, "addr:state": null, "opening_hours": null, "phone": null, "wheelchair": "yes", "outdoor_seating": "yes", "takeaway": "yes", "smoking": "no", "delivery": null, "addr:country": null, "addr:unit": null, "capacity": null, "internet_access": "no" }, "geometry": { "type": "Point", "coordinates": [ -84.422915, 33.78878 ] } },
{ "type": "Feature", "properties": { "amenity": "restaurant", "name": "Varuni Napoli", "cuisine": "pizza", "addr:housenumber": null, "addr:street": null, "addr:postcode": null, "addr:city": null, "website": null, "addr:state": null, "opening_hours": null, "phone": null, "wheelchair": "yes", "outdoor_seating": "no", "takeaway": "yes", "smoking": "no", "delivery": "yes", "addr:country": null, "addr:unit": null, "capacity": null, "internet_access": null }, "geometry": { "type": "Point", "coordinates": [ -84.368756, 33.79656 ] } },
{ "type": "Feature", "properties": { "amenity": "restaurant", "name": "Verde Taqueria", "cuisine": "mexican", "addr:housenumber": "1193", "addr:street": "Collier Road Northwest", "addr:postcode": "30318", "addr:city": "Atlanta", "website": "https:\/\/www.verdetacos.com\/", "addr:state": "GA", "opening_hours": null, "phone": "+1 404 963 5362", "wheelchair": null, "outdoor_seating": null, "takeaway": null, "smoking": null, "delivery": null, "addr:country": null, "addr:unit": null, "capacity": null, "internet_access": null }, "geometry": { "type": "Point", "coordinates": [ -84.4244442, 33.8116833 ] } },
{ "type": "Feature", "properties": { "amenity": "restaurant", "name": "Vespuccis Pizza & Pasta", "cuisine": "pizza", "addr:housenumber": null, "addr:street": null, "addr:postcode": null, "addr:city": null, "website": "http:\/\/www.vespuccispizza.com\/atlanta\/", "addr:state": null, "opening_hours": null, "phone": null, "wheelchair": null, "outdoor_seating": null, "takeaway": null, "smoking": null, "delivery": null, "addr:country": null, "addr:unit": null, "capacity": null, "internet_access": null }, "geometry": { "type": "Point", "coordinates": [ -84.3862359, 33.7927704 ] } },
{ "type": "Feature", "properties": { "amenity": "restaurant", "name": "Vickery's", "cuisine": "american", "addr:housenumber": null, "addr:street": null, "addr:postcode": null, "addr:city": null, "website": null, "addr:state": null, "opening_hours": null, "phone": null, "wheelchair": null, "outdoor_seating": null, "takeaway": null, "smoking": null, "delivery": null, "addr:country": null, "addr:unit": null, "capacity": null, "internet_access": null }, "geometry": { "type": "Point", "coordinates": [ -84.3574033, 33.7404514 ] } },
{ "type": "Feature", "properties": { "amenity": "restaurant", "name": "Vitality Bowls Atlanta", "cuisine": null, "addr:housenumber": "855", "addr:street": "Peachtree Street Northeast", "addr:postcode": "30308", "addr:city": "Atlanta", "website": null, "addr:state": "GA", "opening_hours": null, "phone": null, "wheelchair": null, "outdoor_seating": null, "takeaway": null, "smoking": null, "delivery": null, "addr:country": null, "addr:unit": "Ste 3", "capacity": null, "internet_access": null }, "geometry": { "type": "Point", "coordinates": [ -84.3841353, 33.7778235 ] } },
{ "type": "Feature", "properties": { "amenity": "restaurant", "name": "Waffle House", "cuisine": "american", "addr:housenumber": "135", "addr:street": "Andrew Young International Boulevard", "addr:postcode": "30303", "addr:city": "Atlanta", "website": null, "addr:state": "GA", "opening_hours": "24\/7", "phone": null, "wheelchair": null, "outdoor_seating": "yes", "takeaway": null, "smoking": null, "delivery": null, "addr:country": null, "addr:unit": null, "capacity": null, "internet_access": null }, "geometry": { "type": "Point", "coordinates": [ -84.3919248, 33.7598433 ] } },
{ "type": "Feature", "properties": { "amenity": "restaurant", "name": "Waffle House", "cuisine": "breakfast", "addr:housenumber": null, "addr:street": null, "addr:postcode": null, "addr:city": null, "website": null, "addr:state": null, "opening_hours": "24\/7", "phone": null, "wheelchair": "yes", "outdoor_seating": null, "takeaway": null, "smoking": null, "delivery": null, "addr:country": null, "addr:unit": null, "capacity": null, "internet_access": null }, "geometry": { "type": "Point", "coordinates": [ -84.3894358, 33.7766833 ] } },
{ "type": "Feature", "properties": { "amenity": "restaurant", "name": "Waffle House", "cuisine": null, "addr:housenumber": "1099", "addr:street": "Northside Drive Northwest", "addr:postcode": "30318", "addr:city": "Atlanta", "website": null, "addr:state": null, "opening_hours": "24\/7", "phone": null, "wheelchair": null, "outdoor_seating": null, "takeaway": null, "smoking": null, "delivery": null, "addr:country": null, "addr:unit": null, "capacity": null, "internet_access": null }, "geometry": { "type": "Point", "coordinates": [ -84.4070732, 33.7844939 ] } },
{ "type": "Feature", "properties": { "amenity": "restaurant", "name": "Waffle House", "cuisine": null, "addr:housenumber": "2001", "addr:street": "James Jackson Parkway Northwest", "addr:postcode": "30318", "addr:city": "Atlanta", "website": null, "addr:state": null, "opening_hours": null, "phone": null, "wheelchair": null, "outdoor_seating": null, "takeaway": null, "smoking": null, "delivery": null, "addr:country": null, "addr:unit": null, "capacity": null, "internet_access": null }, "geometry": { "type": "Point", "coordinates": [ -84.4756105, 33.8108178 ] } },
{ "type": "Feature", "properties": { "amenity": "restaurant", "name": "Wagaya", "cuisine": "japanese", "addr:housenumber": "339", "addr:street": "14th Street Northwest", "addr:postcode": "30318", "addr:city": "Atlanta", "website": null, "addr:state": "GA", "opening_hours": null, "phone": null, "wheelchair": null, "outdoor_seating": null, "takeaway": null, "smoking": null, "delivery": null, "addr:country": null, "addr:unit": null, "capacity": null, "internet_access": null }, "geometry": { "type": "Point", "coordinates": [ -84.3983592, 33.7863572 ] } },
{ "type": "Feature", "properties": { "amenity": "restaurant", "name": "Whitehall Tavern", "cuisine": "american", "addr:housenumber": "2391", "addr:street": "Peachtree Road", "addr:postcode": null, "addr:city": null, "website": null, "addr:state": null, "opening_hours": null, "phone": null, "wheelchair": "limited", "outdoor_seating": null, "takeaway": null, "smoking": null, "delivery": null, "addr:country": null, "addr:unit": null, "capacity": null, "internet_access": null }, "geometry": { "type": "Point", "coordinates": [ -84.3876576, 33.8201785 ] } },
{ "type": "Feature", "properties": { "amenity": "restaurant", "name": "White Oak", "cuisine": "american", "addr:housenumber": null, "addr:street": null, "addr:postcode": null, "addr:city": null, "website": null, "addr:state": null, "opening_hours": null, "phone": null, "wheelchair": null, "outdoor_seating": null, "takeaway": null, "smoking": null, "delivery": null, "addr:country": null, "addr:unit": null, "capacity": null, "internet_access": null }, "geometry": { "type": "Point", "coordinates": [ -84.3878635, 33.7621298 ] } },
{ "type": "Feature", "properties": { "amenity": "restaurant", "name": "Willy's Mexicana Grill", "cuisine": "mexican", "addr:housenumber": "100", "addr:street": "Piedmont Avenue Southeast", "addr:postcode": "30303", "addr:city": "Atlanta", "website": null, "addr:state": "GA", "opening_hours": null, "phone": null, "wheelchair": "no", "outdoor_seating": null, "takeaway": null, "smoking": null, "delivery": null, "addr:country": null, "addr:unit": null, "capacity": null, "internet_access": null }, "geometry": { "type": "Point", "coordinates": [ -84.3854161, 33.7511907 ] } },
{ "type": "Feature", "properties": { "amenity": "restaurant", "name": "Willy's Mexicana Grill", "cuisine": "mexican", "addr:housenumber": "1920", "addr:street": "Howell Mill Rd NW", "addr:postcode": "30318", "addr:city": "Atlanta", "website": "http:\/\/www.willys.com\/index.php", "addr:state": null, "opening_hours": null, "phone": "404-351-8883", "wheelchair": null, "outdoor_seating": null, "takeaway": null, "smoking": null, "delivery": null, "addr:country": null, "addr:unit": null, "capacity": null, "internet_access": null }, "geometry": { "type": "Point", "coordinates": [ -84.4131708, 33.8073377 ] } },
{ "type": "Feature", "properties": { "amenity": "restaurant", "name": "Willy's Mexican Grill", "cuisine": "mexican", "addr:housenumber": null, "addr:street": null, "addr:postcode": null, "addr:city": null, "website": null, "addr:state": null, "opening_hours": "Mo-Su 11:00-22:00", "phone": null, "wheelchair": "yes", "outdoor_seating": null, "takeaway": null, "smoking": null, "delivery": null, "addr:country": null, "addr:unit": null, "capacity": null, "internet_access": null }, "geometry": { "type": "Point", "coordinates": [ -84.3787712, 33.7839248 ] } },
{ "type": "Feature", "properties": { "amenity": "restaurant", "name": "Wing Nuts", "cuisine": null, "addr:housenumber": null, "addr:street": null, "addr:postcode": null, "addr:city": null, "website": "https:\/\/www.eatwingnuts.com\/#location", "addr:state": null, "opening_hours": "Mo-Th 11:00-01:00; Fr-Sa 11:00-02:00; Su 12:00-01:00", "phone": "678-702-9990", "wheelchair": null, "outdoor_seating": null, "takeaway": "yes", "smoking": null, "delivery": "yes", "addr:country": null, "addr:unit": null, "capacity": null, "internet_access": null }, "geometry": { "type": "Point", "coordinates": [ -84.4041932, 33.7732921 ] } },
{ "type": "Feature", "properties": { "amenity": "restaurant", "name": "Wings 101", "cuisine": null, "addr:housenumber": null, "addr:street": null, "addr:postcode": null, "addr:city": null, "website": null, "addr:state": null, "opening_hours": null, "phone": null, "wheelchair": null, "outdoor_seating": null, "takeaway": null, "smoking": null, "delivery": null, "addr:country": null, "addr:unit": null, "capacity": null, "internet_access": null }, "geometry": { "type": "Point", "coordinates": [ -84.3662037, 33.8262829 ] } },
{ "type": "Feature", "properties": { "amenity": "restaurant", "name": "Wisteria", "cuisine": "american", "addr:housenumber": null, "addr:street": null, "addr:postcode": null, "addr:city": null, "website": null, "addr:state": null, "opening_hours": null, "phone": null, "wheelchair": null, "outdoor_seating": null, "takeaway": null, "smoking": null, "delivery": null, "addr:country": null, "addr:unit": null, "capacity": null, "internet_access": null }, "geometry": { "type": "Point", "coordinates": [ -84.3528518, 33.7667945 ] } },
{ "type": "Feature", "properties": { "amenity": "restaurant", "name": "Wok and Roll", "cuisine": null, "addr:housenumber": null, "addr:street": null, "addr:postcode": null, "addr:city": null, "website": null, "addr:state": null, "opening_hours": null, "phone": null, "wheelchair": null, "outdoor_seating": null, "takeaway": null, "smoking": null, "delivery": null, "addr:country": null, "addr:unit": null, "capacity": null, "internet_access": null }, "geometry": { "type": "Point", "coordinates": [ -84.3795304, 33.7556505 ] } },
{ "type": "Feature", "properties": { "amenity": "restaurant", "name": "Woody's Famous Philadelphia Cheesesteaks", "cuisine": null, "addr:housenumber": "981", "addr:street": null, "addr:postcode": null, "addr:city": null, "website": null, "addr:state": null, "opening_hours": "Su-Th 11:00-24:00, Fr,Sa 11:00-04:00", "phone": "+1-404-876-1939", "wheelchair": null, "outdoor_seating": null, "takeaway": null, "smoking": null, "delivery": null, "addr:country": null, "addr:unit": null, "capacity": null, "internet_access": null }, "geometry": { "type": "Point", "coordinates": [ -84.3687376, 33.7809609 ] } },
{ "type": "Feature", "properties": { "amenity": "restaurant", "name": "Yalla", "cuisine": null, "addr:housenumber": null, "addr:street": null, "addr:postcode": null, "addr:city": null, "website": null, "addr:state": null, "opening_hours": null, "phone": null, "wheelchair": null, "outdoor_seating": null, "takeaway": null, "smoking": null, "delivery": null, "addr:country": null, "addr:unit": null, "capacity": null, "internet_access": null }, "geometry": { "type": "Point", "coordinates": [ -84.3639731, 33.756806 ] } },
{ "type": "Feature", "properties": { "amenity": "restaurant", "name": "Yeah! Burger", "cuisine": "burger", "addr:housenumber": null, "addr:street": null, "addr:postcode": null, "addr:city": null, "website": null, "addr:state": null, "opening_hours": null, "phone": null, "wheelchair": null, "outdoor_seating": null, "takeaway": null, "smoking": null, "delivery": null, "addr:country": null, "addr:unit": null, "capacity": null, "internet_access": null }, "geometry": { "type": "Point", "coordinates": [ -84.4121409, 33.78541 ] } },
{ "type": "Feature", "properties": { "amenity": "restaurant", "name": "YEAH! Burger", "cuisine": "burger", "addr:housenumber": null, "addr:street": null, "addr:postcode": null, "addr:city": null, "website": null, "addr:state": null, "opening_hours": null, "phone": null, "wheelchair": null, "outdoor_seating": null, "takeaway": null, "smoking": null, "delivery": null, "addr:country": null, "addr:unit": null, "capacity": null, "internet_access": null }, "geometry": { "type": "Point", "coordinates": [ -84.353883, 33.7821169 ] } },
{ "type": "Feature", "properties": { "amenity": "restaurant", "name": "Yoi Yoi Japanese Steakhouse & Sushi", "cuisine": "japanese", "addr:housenumber": "857", "addr:street": "Collier Road Northwest", "addr:postcode": "30318", "addr:city": "Atlanta", "website": "http:\/\/yoiyoiatlanta.com\/", "addr:state": "GA", "opening_hours": null, "phone": "+1 404 351-1788", "wheelchair": null, "outdoor_seating": null, "takeaway": "yes", "smoking": null, "delivery": "yes", "addr:country": null, "addr:unit": null, "capacity": null, "internet_access": null }, "geometry": { "type": "Point", "coordinates": [ -84.4160885, 33.8102877 ] } },
{ "type": "Feature", "properties": { "amenity": "restaurant", "name": "Your Pie", "cuisine": "pizza", "addr:housenumber": "5", "addr:street": "West Paces Ferry Road Northwest", "addr:postcode": "30305", "addr:city": "Atlanta", "website": null, "addr:state": "GA", "opening_hours": null, "phone": null, "wheelchair": null, "outdoor_seating": null, "takeaway": null, "smoking": null, "delivery": null, "addr:country": null, "addr:unit": null, "capacity": null, "internet_access": null }, "geometry": { "type": "Point", "coordinates": [ -84.3804246, 33.8397525 ] } },
{ "type": "Feature", "properties": { "amenity": "restaurant", "name": "Yumbi", "cuisine": "asian;mexican", "addr:housenumber": null, "addr:street": null, "addr:postcode": null, "addr:city": null, "website": null, "addr:state": null, "opening_hours": "Mo-Su 11:00-21:00", "phone": null, "wheelchair": null, "outdoor_seating": null, "takeaway": "yes", "smoking": null, "delivery": null, "addr:country": null, "addr:unit": null, "capacity": null, "internet_access": null }, "geometry": { "type": "Point", "coordinates": [ -84.3935081, 33.8073576 ] } },
{ "type": "Feature", "properties": { "amenity": "restaurant", "name": "Yumm Teriyaki", "cuisine": "japanese", "addr:housenumber": "87", "addr:street": "Peachtree Street Southwest", "addr:postcode": "30303", "addr:city": "Atlanta", "website": null, "addr:state": "GA", "opening_hours": "Mo-Sa 10:30-03:00", "phone": "404-223-2310", "wheelchair": null, "outdoor_seating": null, "takeaway": "yes", "smoking": null, "delivery": "yes", "addr:country": null, "addr:unit": "B", "capacity": null, "internet_access": null }, "geometry": { "type": "Point", "coordinates": [ -84.3921578, 33.752256 ] } },
{ "type": "Feature", "properties": { "amenity": "restaurant", "name": "Zen", "cuisine": null, "addr:housenumber": null, "addr:street": null, "addr:postcode": null, "addr:city": null, "website": null, "addr:state": null, "opening_hours": null, "phone": null, "wheelchair": null, "outdoor_seating": null, "takeaway": null, "smoking": null, "delivery": null, "addr:country": null, "addr:unit": null, "capacity": null, "internet_access": null }, "geometry": { "type": "Point", "coordinates": [ -84.4078552, 33.7817754 ] } },
{ "type": "Feature", "properties": { "amenity": "restaurant", "name": "Ziba's", "cuisine": "american", "addr:housenumber": null, "addr:street": null, "addr:postcode": null, "addr:city": null, "website": null, "addr:state": null, "opening_hours": null, "phone": null, "wheelchair": null, "outdoor_seating": null, "takeaway": null, "smoking": null, "delivery": null, "addr:country": null, "addr:unit": null, "capacity": null, "internet_access": null }, "geometry": { "type": "Point", "coordinates": [ -84.367998, 33.7392269 ] } },
{ "type": "Feature", "properties": { "amenity": "restaurant", "name": "Zocalo", "cuisine": "mexican", "addr:housenumber": null, "addr:street": null, "addr:postcode": null, "addr:city": null, "website": null, "addr:state": null, "opening_hours": "Su-Th 11:00-22:00, Sa,Su 11:00-23:00", "phone": null, "wheelchair": "yes", "outdoor_seating": null, "takeaway": null, "smoking": null, "delivery": null, "addr:country": null, "addr:unit": null, "capacity": null, "internet_access": null }, "geometry": { "type": "Point", "coordinates": [ -84.3809827, 33.7815418 ] } },
{ "type": "Feature", "properties": { "amenity": "restaurant", "name": "Zumi", "cuisine": "sushi", "addr:housenumber": null, "addr:street": null, "addr:postcode": null, "addr:city": null, "website": null, "addr:state": null, "opening_hours": null, "phone": null, "wheelchair": null, "outdoor_seating": null, "takeaway": null, "smoking": null, "delivery": null, "addr:country": null, "addr:unit": null, "capacity": null, "internet_access": null }, "geometry": { "type": "Point", "coordinates": [ -84.3652346, 33.7611889 ] } },
{ "type": "Feature", "properties": { "amenity": "restaurant", "name": null, "cuisine": "asian", "addr:housenumber": null, "addr:street": null, "addr:postcode": null, "addr:city": null, "website": null, "addr:state": null, "opening_hours": null, "phone": null, "wheelchair": null, "outdoor_seating": null, "takeaway": null, "smoking": null, "delivery": null, "addr:country": null, "addr:unit": null, "capacity": null, "internet_access": null }, "geometry": { "type": "Point", "coordinates": [ -84.3557057, 33.7873802 ] } },
{ "type": "Feature", "properties": { "amenity": "restaurant", "name": null, "cuisine": "indian", "addr:housenumber": null, "addr:street": null, "addr:postcode": null, "addr:city": null, "website": null, "addr:state": null, "opening_hours": null, "phone": null, "wheelchair": null, "outdoor_seating": null, "takeaway": null, "smoking": null, "delivery": null, "addr:country": null, "addr:unit": null, "capacity": null, "internet_access": null }, "geometry": { "type": "Point", "coordinates": [ -84.3489024, 33.7665276 ] } },
{ "type": "Feature", "properties": { "amenity": "restaurant", "name": null, "cuisine": "japanese", "addr:housenumber": null, "addr:street": null, "addr:postcode": null, "addr:city": null, "website": null, "addr:state": null, "opening_hours": null, "phone": null, "wheelchair": null, "outdoor_seating": null, "takeaway": null, "smoking": null, "delivery": null, "addr:country": null, "addr:unit": null, "capacity": null, "internet_access": null }, "geometry": { "type": "Point", "coordinates": [ -84.3971092, 33.7927976 ] } },
{ "type": "Feature", "properties": { "amenity": "restaurant", "name": null, "cuisine": "regional", "addr:housenumber": "130", "addr:street": "Arizona Avenue Northeast", "addr:postcode": "30307", "addr:city": "Atlanta", "website": "http:\/\/rationanddram.com", "addr:state": null, "opening_hours": "Monday-Friday: 5:00pm-12:00am, Saturday: 11:00am-12:00am, Sunday: 11:00am-10:00pm", "phone": "6789748380", "wheelchair": "yes", "outdoor_seating": null, "takeaway": null, "smoking": "outside", "delivery": null, "addr:country": null, "addr:unit": null, "capacity": "140", "internet_access": null }, "geometry": { "type": "Point", "coordinates": [ -84.3315526, 33.7585843 ] } },
{ "type": "Feature", "properties": { "amenity": "restaurant", "name": null, "cuisine": "thai", "addr:housenumber": null, "addr:street": null, "addr:postcode": null, "addr:city": null, "website": null, "addr:state": null, "opening_hours": null, "phone": null, "wheelchair": null, "outdoor_seating": null, "takeaway": null, "smoking": null, "delivery": null, "addr:country": null, "addr:unit": null, "capacity": null, "internet_access": null }, "geometry": { "type": "Point", "coordinates": [ -84.3530717, 33.7765088 ] } },
{ "type": "Feature", "properties": { "amenity": "restaurant", "name": null, "cuisine": null, "addr:housenumber": null, "addr:street": null, "addr:postcode": null, "addr:city": null, "website": null, "addr:state": null, "opening_hours": null, "phone": null, "wheelchair": null, "outdoor_seating": null, "takeaway": null, "smoking": null, "delivery": null, "addr:country": null, "addr:unit": null, "capacity": null, "internet_access": null }, "geometry": { "type": "Point", "coordinates": [ -84.3817848, 33.7556878 ] } },
{ "type": "Feature", "properties": { "amenity": "restaurant", "name": null, "cuisine": null, "addr:housenumber": null, "addr:street": null, "addr:postcode": null, "addr:city": null, "website": null, "addr:state": null, "opening_hours": null, "phone": null, "wheelchair": null, "outdoor_seating": null, "takeaway": null, "smoking": null, "delivery": null, "addr:country": null, "addr:unit": null, "capacity": null, "internet_access": null }, "geometry": { "type": "Point", "coordinates": [ -84.4108159, 33.7804875 ] } },
{ "type": "Feature", "properties": { "amenity": "restaurant", "name": null, "cuisine": null, "addr:housenumber": null, "addr:street": null, "addr:postcode": null, "addr:city": null, "website": null, "addr:state": null, "opening_hours": null, "phone": null, "wheelchair": null, "outdoor_seating": null, "takeaway": null, "smoking": null, "delivery": null, "addr:country": null, "addr:unit": null, "capacity": null, "internet_access": null }, "geometry": { "type": "Point", "coordinates": [ -84.3801261, 33.7816725 ] } },
{ "type": "Feature", "properties": { "amenity": "restaurant", "name": null, "cuisine": null, "addr:housenumber": null, "addr:street": null, "addr:postcode": null, "addr:city": null, "website": null, "addr:state": null, "opening_hours": null, "phone": null, "wheelchair": null, "outdoor_seating": null, "takeaway": null, "smoking": null, "delivery": null, "addr:country": null, "addr:unit": null, "capacity": null, "internet_access": null }, "geometry": { "type": "Point", "coordinates": [ -84.3803368, 33.7816381 ] } },
{ "type": "Feature", "properties": { "amenity": "restaurant", "name": null, "cuisine": null, "addr:housenumber": null, "addr:street": null, "addr:postcode": null, "addr:city": null, "website": null, "addr:state": null, "opening_hours": null, "phone": null, "wheelchair": null, "outdoor_seating": null, "takeaway": null, "smoking": null, "delivery": null, "addr:country": null, "addr:unit": null, "capacity": null, "internet_access": null }, "geometry": { "type": "Point", "coordinates": [ -84.4278086, 33.7851436 ] } }
]
}
